name,zip,lat,lng,mapsurl
Brussel,1000,50.8427501,4.3515499,"http://maps.google.com/maps?q=50.8427501,4.351549900000009"
Brusselse Hoofdstedelijke Raad,1005,50.8448768,4.3514335,"http://maps.google.com/maps?q=50.84487679999999,4.351433499999985"
Chambre des Représentants,1008,50.8465568,4.3646622,"http://maps.google.com/maps?q=50.84655679999999,4.364662199999998"
Senat de Belgique,1009,50.79834,4.39565,"http://maps.google.com/maps?q=50.79834,4.395649999999932"
Rijksadministratief Centrum,1010,50.8243276,4.5139543,"http://maps.google.com/maps?q=50.8243276,4.513954300000023"
Parlement de la Communauté française,1012,50.8466387,4.3619924,"http://maps.google.com/maps?q=50.8466387,4.361992399999963"
Brussel (Laken),1020,50.884218,4.3580002,"http://maps.google.com/maps?q=50.884218,4.358000199999992"
Brussel (Schaarbeek),1030,50.86744,4.37727,"http://maps.google.com/maps?q=50.86743999999999,4.377269999999953"
Brussel (Etterbeek),1040,50.832177,4.388949,"http://maps.google.com/maps?q=50.83217699999999,4.388949000000025"
VRT,1043,50.8530691,4.4043556,"http://maps.google.com/maps?q=50.8530691,4.404355600000031"
RTBF,1044,50.85079,4.402889,"http://maps.google.com/maps?q=50.85079,4.402888999999959"
D.I.V.,1045,50.8581573,4.3599077,"http://maps.google.com/maps?q=50.85815729999999,4.359907700000008"
Europees Parlement,1047,50.8388665,4.3749766,"http://maps.google.com/maps?q=50.83886649999999,4.374976599999968"
E.U.-Raad,1048,50.847857,4.367408,"http://maps.google.com/maps?q=50.847857,4.367408000000069"
E.U.-Commissie,1049,50.83862,4.35023,"http://maps.google.com/maps?q=50.83862,4.3502300000000105"
Brussel (Elsene),1050,50.8333333,4.3666667,"http://maps.google.com/maps?q=50.8333333,4.366666699999996"
Brussel (Sint-Gillis),1060,50.8301436,4.3402184,"http://maps.google.com/maps?q=50.8301436,4.340218400000026"
Anderlecht,1070,50.8365808,4.308187,"http://maps.google.com/maps?q=50.8365808,4.308186999999975"
Brussel (Sint-Jans-Molenbeek),1080,50.85,4.3166667,"http://maps.google.com/maps?q=50.84999999999999,4.316666700000042"
Brussel (Koekelberg),1081,50.859029,4.330334,"http://maps.google.com/maps?q=50.859029,4.3303339999999935"
Berchem-Sainte-Agathe,1082,50.865341,4.295748,"http://maps.google.com/maps?q=50.865341,4.295748000000003"
Brussel (Ganshoren),1083,50.87113,4.30253,"http://maps.google.com/maps?q=50.87113,4.302529999999933"
Brussel (Jette),1090,50.8730556,4.3338889,"http://maps.google.com/maps?q=50.8730556,4.333888900000034"
Postcheque,1100,50.81349,4.3844,"http://maps.google.com/maps?q=50.81348999999999,4.384400000000028"
SOC,1105,50.0107,5.73572,"http://maps.google.com/maps?q=50.0107,5.735720000000015"
NAVO - NATO,1110,50.8762831,4.4219707,"http://maps.google.com/maps?q=50.87628309999999,4.421970699999974"
Brussel (Neder-Over-Heembeek),1120,50.905667,4.396911,"http://maps.google.com/maps?q=50.905667,4.3969110000000455"
Brussel (Haren),1130,50.89562,4.41675,"http://maps.google.com/maps?q=50.89562000000001,4.416749999999979"
Brussel (Evere),1140,50.8666667,4.4,"http://maps.google.com/maps?q=50.8666667,4.399999999999977"
Brussel (Sint-Pieters-Woluwe),1150,50.83618,4.45163,"http://maps.google.com/maps?q=50.83618000000001,4.451630000000023"
Auderghem,1160,50.8166667,4.4333333,"http://maps.google.com/maps?q=50.8166667,4.433333299999958"
Brussel (Watermaal-Bosvoorde),1170,50.800919,4.414715,"http://maps.google.com/maps?q=50.800919,4.414715000000001"
Brussel (Ukkel),1180,50.8,4.3333333,"http://maps.google.com/maps?q=50.8,4.333333300000049"
Brussel (Vorst),1190,50.81745,4.32675,"http://maps.google.com/maps?q=50.81745,4.326749999999947"
Brussel (Sint-Lambrechts-Woluwe),1200,50.842365,4.423892,"http://maps.google.com/maps?q=50.842365,4.4238920000000235"
R.T.L. - T.V.I.,1201,50.8574037,4.4297282,"http://maps.google.com/maps?q=50.8574037,4.4297282"
Brussel (Sint-Joost-ten-Node),1210,50.8537715,4.3704657,"http://maps.google.com/maps?q=50.8537715,4.370465700000068"
Limal,1300,50.6934506,4.5732954,"http://maps.google.com/maps?q=50.6934506,4.573295400000006"
Bierges,1301,50.7113795,4.5871684,"http://maps.google.com/maps?q=50.7113795,4.587168399999996"
La Hulpe,1310,50.7309955,4.4856707,"http://maps.google.com/maps?q=50.7309955,4.485670700000014"
Glimes,1315,50.6796,4.83774,"http://maps.google.com/maps?q=50.6796,4.83773999999994"
Hamme-Mille,1320,50.77953,4.71694,"http://maps.google.com/maps?q=50.77953,4.716940000000022"
Bonlez,1325,50.70193,4.68948,"http://maps.google.com/maps?q=50.70193,4.689480000000003"
Rixensart,1330,50.7109736,4.5306325,"http://maps.google.com/maps?q=50.7109736,4.530632500000024"
Rosières,1331,50.73015,4.54441,"http://maps.google.com/maps?q=50.73014999999999,4.544409999999971"
Genval,1332,50.7211,4.49388,"http://maps.google.com/maps?q=50.7211,4.49387999999999"
Ottignies,1340,50.665465,4.5669046,"http://maps.google.com/maps?q=50.665465,4.5669046000000435"
Céroux-Mousty,1341,50.660369,4.5204882,"http://maps.google.com/maps?q=50.660369,4.520488200000045"
Limelette,1342,50.6846872,4.571335,"http://maps.google.com/maps?q=50.6846872,4.571334999999976"
Louvain-la-Neuve,1348,50.6738567,4.6151693,"http://maps.google.com/maps?q=50.67385669999999,4.615169299999934"
Enines,1350,50.69366,4.92655,"http://maps.google.com/maps?q=50.69365999999999,4.92655000000002"
Linsmeau,1357,50.73452,5.00155,"http://maps.google.com/maps?q=50.73452,5.001549999999952"
Malèves-Sainte-Marie-Wastines,1360,50.65503,4.77943,"http://maps.google.com/maps?q=50.65503,4.779430000000048"
Autre-Eglise,1367,50.66926,4.90375,"http://maps.google.com/maps?q=50.66925999999999,4.903749999999945"
Dongelberg,1370,50.70338,4.82007,"http://maps.google.com/maps?q=50.70338,4.820069999999987"
Couture-Saint-Germain,1380,50.67502,4.47252,"http://maps.google.com/maps?q=50.67502,4.472520000000031"
Archennes,1390,50.7524768,4.669868,"http://maps.google.com/maps?q=50.7524768,4.669867999999951"
Monstreux,1400,50.59803,4.28884,"http://maps.google.com/maps?q=50.59803,4.2888399999999365"
Baulers,1401,50.61341,4.35387,"http://maps.google.com/maps?q=50.61341,4.353870000000029"
Thines,1402,50.59734,4.36846,"http://maps.google.com/maps?q=50.59734,4.368460000000027"
Bornival,1404,50.60184,4.27629,"http://maps.google.com/maps?q=50.60184,4.276290000000017"
Waterloo,1410,50.71469,4.3991,"http://maps.google.com/maps?q=50.71469,4.399099999999976"
Promo-Control,1414,50.7180368,4.3829613,"http://maps.google.com/maps?q=50.7180368,4.382961300000034"
Braine-l'Alleud,1420,50.6969022,4.3538379,"http://maps.google.com/maps?q=50.6969022,4.3538379000000305"
Ophain-Bois-Seigneur-Isaac,1421,50.66642,4.34886,"http://maps.google.com/maps?q=50.66642,4.348860000000059"
Lillois-Witterzée,1428,50.64567,4.36712,"http://maps.google.com/maps?q=50.64567,4.36712"
Bierghes,1430,50.6956998,4.1195104,"http://maps.google.com/maps?q=50.6956998,4.119510399999967"
Corbais,1435,50.6462709,4.6553809,"http://maps.google.com/maps?q=50.6462709,4.655380899999955"
Wauthier-Braine,1440,50.68121,4.29806,"http://maps.google.com/maps?q=50.68121,4.298059999999964"
Chastre-Villeroux-Blanmont,1450,50.6,4.6333333,"http://maps.google.com/maps?q=50.59999999999999,4.633333300000004"
Nil-Saint-Vincent-Saint-Martin,1457,50.64214,4.67982,"http://maps.google.com/maps?q=50.64214,4.679820000000063"
Virginal-Samme,1460,50.63983,4.20587,"http://maps.google.com/maps?q=50.63983,4.205870000000004"
Haut-Ittre,1461,50.65357,4.29825,"http://maps.google.com/maps?q=50.65357,4.298250000000053"
Baisy-Thy,1470,50.5969876,4.4760976,"http://maps.google.com/maps?q=50.59698760000001,4.476097600000003"
Loupoigne,1471,50.5978099,4.4445799,"http://maps.google.com/maps?q=50.59780989999999,4.444579900000008"
Vieux-Genappe,1472,50.6082918,4.4405969,"http://maps.google.com/maps?q=50.6082918,4.440596899999946"
Glabais,1473,50.6302595,4.4532789,"http://maps.google.com/maps?q=50.6302595,4.453278899999987"
Ways,1474,50.6104429,4.4644969,"http://maps.google.com/maps?q=50.6104429,4.464496899999972"
Houtain-le-Val,1476,50.5829629,4.4113773,"http://maps.google.com/maps?q=50.5829629,4.4113773000000265"
Clabecq,1480,50.69212,4.22163,"http://maps.google.com/maps?q=50.69212,4.221630000000005"
Court-Saint-Etienne,1490,50.6422504,4.5680813,"http://maps.google.com/maps?q=50.64225039999999,4.568081300000017"
Marbais (Bt.),1495,50.54956,4.54067,"http://maps.google.com/maps?q=50.54956,4.540669999999977"
Halle,1500,50.7324848,4.2349129,"http://maps.google.com/maps?q=50.73248479999999,4.23491290000004"
Buizingen,1501,50.7392326,4.263916,"http://maps.google.com/maps?q=50.7392326,4.263915999999995"
Lembeek,1502,50.7140616,4.2200436,"http://maps.google.com/maps?q=50.7140616,4.220043600000054"
Herfelingen,1540,50.7477711,4.0998655,"http://maps.google.com/maps?q=50.74777109999999,4.099865499999964"
Sint-Pieters-Kapelle (Bt.),1541,50.7070524,3.9899741,"http://maps.google.com/maps?q=50.70705239999999,3.9899741000000404"
Bever,1547,50.718269,3.940144,"http://maps.google.com/maps?q=50.718269,3.940144000000032"
Hoeilaart,1560,50.7674863,4.4740458,"http://maps.google.com/maps?q=50.76748629999999,4.474045799999999"
Tollembeek,1570,50.7410978,4.006775,"http://maps.google.com/maps?q=50.7410978,4.0067750000000615"
Oudenaken,1600,50.78068,4.19938,"http://maps.google.com/maps?q=50.78068,4.199380000000019"
Ruisbroek (Bt.),1601,50.79035,4.29862,"http://maps.google.com/maps?q=50.79035,4.298620000000028"
Vlezenbeek,1602,50.80785,4.23213,"http://maps.google.com/maps?q=50.80784999999999,4.232129999999984"
Drogenbos,1620,50.7833333,4.3166667,"http://maps.google.com/maps?q=50.7833333,4.316666700000042"
Linkebeek,1630,50.7666667,4.3333333,"http://maps.google.com/maps?q=50.7666667,4.333333300000049"
Rhode-Saint-Genese,1640,50.74594,4.35753,"http://maps.google.com/maps?q=50.74594,4.357529999999997"
Beersel,1650,50.7686913,4.3120069,"http://maps.google.com/maps?q=50.7686913,4.3120069000000285"
Lot,1651,50.76778,4.27707,"http://maps.google.com/maps?q=50.76777999999999,4.277069999999981"
Alsemberg,1652,50.74163,4.33613,"http://maps.google.com/maps?q=50.74163,4.336130000000026"
Dworp,1653,50.72949,4.30109,"http://maps.google.com/maps?q=50.72949,4.301089999999931"
Huizingen,1654,50.74657,4.27369,"http://maps.google.com/maps?q=50.74657,4.273689999999988"
Bogaarden,1670,50.74,4.13632,"http://maps.google.com/maps?q=50.73999999999999,4.136320000000069"
Elingen,1671,50.77926,4.17119,"http://maps.google.com/maps?q=50.77926,4.171190000000024"
Beert,1673,50.74103,4.18184,"http://maps.google.com/maps?q=50.74102999999999,4.181839999999966"
Bellingen,1674,50.7408,4.15399,"http://maps.google.com/maps?q=50.7408,4.153990000000022"
Sint-Martens-Bodegem,1700,50.8614672,4.2128916,"http://maps.google.com/maps?q=50.8614672,4.2128916000000345"
Itterbeek,1701,50.8381387,4.2500689,"http://maps.google.com/maps?q=50.83813869999999,4.250068899999974"
Groot-Bijgaarden,1702,50.8719066,4.2500012,"http://maps.google.com/maps?q=50.8719066,4.2500012000000424"
Schepdaal,1703,50.8383485,4.1958272,"http://maps.google.com/maps?q=50.8383485,4.19582719999994"
Bekkerzeel,1730,50.88523,4.23803,"http://maps.google.com/maps?q=50.88523,4.238029999999981"
Relegem,1731,50.89908,4.27702,"http://maps.google.com/maps?q=50.89908,4.277019999999993"
Ternat,1740,50.8698353,4.1808317,"http://maps.google.com/maps?q=50.8698353,4.180831699999999"
Wambeek,1741,50.8532484,4.1628356,"http://maps.google.com/maps?q=50.85324840000001,4.162835599999994"
Sint-Katherina-Lombeek,1742,50.8732586,4.1559883,"http://maps.google.com/maps?q=50.8732586,4.15598829999999"
Mazenzele,1745,50.942789,4.1711583,"http://maps.google.com/maps?q=50.942789,4.171158300000002"
Gaasbeek,1750,50.79987,4.18893,"http://maps.google.com/maps?q=50.79987,4.188930000000028"
Kester,1755,50.76428,4.11935,"http://maps.google.com/maps?q=50.76428,4.11934999999994"
Onze-Lieve-Vrouw-Lombeek,1760,50.8197588,4.1101502,"http://maps.google.com/maps?q=50.8197588,4.110150200000021"
Borchtlombeek,1761,50.8475374,4.139768,"http://maps.google.com/maps?q=50.8475374,4.139768000000004"
Liedekerke,1770,50.86891,4.08729,"http://maps.google.com/maps?q=50.86891,4.087289999999939"
Wemmel,1780,50.906141,4.306408,"http://maps.google.com/maps?q=50.906141,4.306408000000033"
Brussegem,1785,50.92574,4.26608,"http://maps.google.com/maps?q=50.92574,4.266079999999988"
Essene,1790,50.9015743,4.1364265,"http://maps.google.com/maps?q=50.90157430000001,4.1364264999999705"
Peutie,1800,50.92847,4.45188,"http://maps.google.com/maps?q=50.92847,4.45187999999996"
Cargovil,1804,50.947259,4.427268,"http://maps.google.com/maps?q=50.947259,4.427268000000026"
VTM,1818,50.914158,4.397676,"http://maps.google.com/maps?q=50.914158,4.397676000000047"
Melsbroek,1820,50.91512,4.47846,"http://maps.google.com/maps?q=50.91512,4.478460000000041"
Machelen (Bt.),1830,50.9119,4.43229,"http://maps.google.com/maps?q=50.9119,4.432289999999966"
Diegem,1831,50.8976668,4.4346964,"http://maps.google.com/maps?q=50.8976668,4.434696400000007"
Malderen,1840,51.02033,4.24629,"http://maps.google.com/maps?q=51.02032999999999,4.2462900000000445"
Grimbergen,1850,50.9356235,4.3785596,"http://maps.google.com/maps?q=50.9356235,4.378559600000017"
Humbeek,1851,50.9672327,4.3795118,"http://maps.google.com/maps?q=50.9672327,4.379511800000046"
Beigem,1852,50.9528364,4.3660653,"http://maps.google.com/maps?q=50.9528364,4.366065299999946"
Strombeek-Bever,1853,50.9103739,4.35564,"http://maps.google.com/maps?q=50.9103739,4.355639999999994"
Meise,1860,50.9478621,4.3302827,"http://maps.google.com/maps?q=50.94786209999999,4.330282699999998"
Wolvertem,1861,50.95088,4.30927,"http://maps.google.com/maps?q=50.95088,4.3092699999999695"
Nieuwenrode,1880,50.97857,4.35229,"http://maps.google.com/maps?q=50.97857,4.352290000000039"
Berg (Bt.),1910,51.1316639,5.8439044,"http://maps.google.com/maps?q=51.1316639,5.843904400000042"
Nossegem,1930,50.8781921,4.5074739,"http://maps.google.com/maps?q=50.8781921,4.507473900000036"
Brucargo,1931,50.903293,4.452214,"http://maps.google.com/maps?q=50.903293,4.452214000000026"
Sint-Stevens-Woluwe,1932,50.8691972,4.4502354,"http://maps.google.com/maps?q=50.8691972,4.450235399999997"
Sterrebeek,1933,50.8632635,4.5161823,"http://maps.google.com/maps?q=50.8632635,4.516182299999969"
Brussel X-Luchthaven Remailing,1934,50.8923428,4.4878174,"http://maps.google.com/maps?q=50.89234279999999,4.48781740000004"
Kraainem,1950,50.8610856,4.4592974,"http://maps.google.com/maps?q=50.8610856,4.4592973999999685"
Wezembeek-Oppem,1970,50.83854,4.50848,"http://maps.google.com/maps?q=50.83853999999999,4.508479999999963"
Eppegem,1980,50.9621231,4.4544329,"http://maps.google.com/maps?q=50.9621231,4.454432900000029"
Hofstade (Bt.),1981,50.9916699,4.4924542,"http://maps.google.com/maps?q=50.9916699,4.492454199999997"
Elewijt,1982,50.9618503,4.4964542,"http://maps.google.com/maps?q=50.96185029999999,4.4964542000000165"
Antwerpen,2000,51.2198771,4.4011356,"http://maps.google.com/maps?q=51.2198771,4.401135599999975"
Berendrecht,2040,51.34287,4.31409,"http://maps.google.com/maps?q=51.34287,4.314089999999965"
Burcht,2070,51.20367,4.34148,"http://maps.google.com/maps?q=51.20367,4.341480000000047"
Deurne (Antwerpen),2100,51.1891603,4.4619208,"http://maps.google.com/maps?q=51.1891603,4.46192080000003"
Wijnegem,2110,51.2277778,4.5155556,"http://maps.google.com/maps?q=51.2277778,4.515555599999971"
Borgerhout (Antwerpen),2140,51.213847,4.4405633,"http://maps.google.com/maps?q=51.213847,4.440563300000008"
Borsbeek (Antw.),2150,51.194179,4.481594,"http://maps.google.com/maps?q=51.194179,4.481593999999973"
Wommelgem,2160,51.203981,4.522188,"http://maps.google.com/maps?q=51.203981,4.522188000000028"
Merksem (Antwerpen),2170,51.2512741,4.448539,"http://maps.google.com/maps?q=51.2512741,4.4485389999999825"
Ekeren (Antwerpen),2180,51.2807314,4.4184495,"http://maps.google.com/maps?q=51.2807314,4.4184494999999515"
Morkhoven,2200,51.1200863,4.8207292,"http://maps.google.com/maps?q=51.1200863,4.82072919999996"
Hallaar,2220,51.08464,4.73293,"http://maps.google.com/maps?q=51.08464,4.73293000000001"
Booischot,2221,51.05151,4.77523,"http://maps.google.com/maps?q=51.05151,4.775229999999965"
Itegem,2222,51.10321,4.72927,"http://maps.google.com/maps?q=51.10321,4.729270000000042"
Schriek,2223,51.02745,4.69272,"http://maps.google.com/maps?q=51.02744999999999,4.692720000000008"
Ramsel,2230,51.03211,4.8328,"http://maps.google.com/maps?q=51.03211,4.83280000000002"
Houtvenne,2235,51.04208,4.80894,"http://maps.google.com/maps?q=51.04208,4.808940000000007"
Massenhoven,2240,51.1986273,4.6364247,"http://maps.google.com/maps?q=51.1986273,4.6364247000000205"
Pulderbos,2242,51.2165685,4.6919,"http://maps.google.com/maps?q=51.2165685,4.691900000000032"
Pulle,2243,51.2032977,4.7137397,"http://maps.google.com/maps?q=51.2032977,4.713739700000019"
Olen,2250,51.1662602,4.8989077,"http://maps.google.com/maps?q=51.1662602,4.898907699999995"
Oevel,2260,51.13822,4.90411,"http://maps.google.com/maps?q=51.13822,4.904109999999946"
Herenthout,2270,51.1394506,4.7564892,"http://maps.google.com/maps?q=51.1394506,4.756489200000033"
Gierle,2275,51.2671512,4.8677063,"http://maps.google.com/maps?q=51.2671512,4.867706300000009"
Grobbendonk,2280,51.1832616,4.7349959,"http://maps.google.com/maps?q=51.18326159999999,4.734995900000058"
Bouwel,2288,51.1719684,4.7420582,"http://maps.google.com/maps?q=51.1719684,4.742058199999974"
Vorselaar,2290,51.2025247,4.7708827,"http://maps.google.com/maps?q=51.2025247,4.770882700000016"
Turnhout,2300,51.3216509,4.9375577,"http://maps.google.com/maps?q=51.3216509,4.93755770000007"
Rijkevorsel,2310,51.348812,4.762252,"http://maps.google.com/maps?q=51.348812,4.7622519999999895"
Hoogstraten,2320,51.403297,4.7468218,"http://maps.google.com/maps?q=51.403297,4.746821800000021"
Meer,2321,51.4456,4.7383,"http://maps.google.com/maps?q=51.4456,4.738299999999981"
Minderhout,2322,51.41654,4.76339,"http://maps.google.com/maps?q=51.41654,4.7633899999999585"
Wortel,2323,51.39751,4.79475,"http://maps.google.com/maps?q=51.39751,4.794750000000022"
Meerle,2328,51.45725,4.8232,"http://maps.google.com/maps?q=51.45724999999999,4.823200000000043"
Merksplas,2330,51.35805,4.86339,"http://maps.google.com/maps?q=51.35805,4.863389999999981"
Vlimmeren,2340,51.2971394,4.7820454,"http://maps.google.com/maps?q=51.2971394,4.782045400000015"
Vosselaar,2350,51.3080556,4.8883333,"http://maps.google.com/maps?q=51.3080556,4.888333299999999"
Oud-Turnhout,2360,51.3177601,4.982845,"http://maps.google.com/maps?q=51.3177601,4.9828449999999975"
Arendonk,2370,51.322049,5.0863348,"http://maps.google.com/maps?q=51.322049,5.0863348000000315"
Ravels,2380,51.3762015,5.0185568,"http://maps.google.com/maps?q=51.3762015,5.018556799999942"
Weelde,2381,51.406763,4.9908357,"http://maps.google.com/maps?q=51.406763,4.990835699999934"
Poppel,2382,51.4471741,5.0431801,"http://maps.google.com/maps?q=51.4471741,5.043180099999972"
Baarle-Hertog,2387,51.4069842,4.8933004,"http://maps.google.com/maps?q=51.4069842,4.893300400000044"
Oostmalle,2390,51.301137,4.7337542,"http://maps.google.com/maps?q=51.301137,4.733754200000021"
Mol,2400,51.191087,5.1170647,"http://maps.google.com/maps?q=51.191087,5.1170647000000145"
Eindhout,2430,51.10334,4.9997,"http://maps.google.com/maps?q=51.10334,4.999699999999962"
Varendonk,2431,51.08397,4.9513,"http://maps.google.com/maps?q=51.08397,4.9512999999999465"
Geel,2440,51.164768,4.989791,"http://maps.google.com/maps?q=51.164768,4.989790999999968"
Meerhout,2450,51.1313889,5.0786111,"http://maps.google.com/maps?q=51.1313889,5.078611099999989"
Lichtaart,2460,51.2246769,4.916926,"http://maps.google.com/maps?q=51.2246769,4.9169259999999895"
Retie,2470,51.2669664,5.0842508,"http://maps.google.com/maps?q=51.2669664,5.0842508000000635"
Dessel,2480,51.238107,5.116973,"http://maps.google.com/maps?q=51.238107,5.11697300000003"
Balen,2490,51.1578305,5.2100666,"http://maps.google.com/maps?q=51.1578305,5.210066600000005"
Olmen,2491,51.1338157,5.160699,"http://maps.google.com/maps?q=51.1338157,5.160699000000022"
Koningshooikt,2500,51.09522,4.61011,"http://maps.google.com/maps?q=51.09522,4.610109999999963"
Broechem,2520,51.1813334,4.6020124,"http://maps.google.com/maps?q=51.1813334,4.602012400000035"
Boechout,2530,51.1664397,4.49717,"http://maps.google.com/maps?q=51.1664397,4.497169999999983"
Vremde,2531,51.17486,4.52311,"http://maps.google.com/maps?q=51.17486,4.523109999999974"
Hove,2540,51.1539,4.47104,"http://maps.google.com/maps?q=51.1539,4.471040000000016"
Lint,2547,51.127649,4.496904,"http://maps.google.com/maps?q=51.127649,4.496903999999972"
Waarloos,2550,51.105061,4.4546959,"http://maps.google.com/maps?q=51.105061,4.454695899999933"
Bevel,2560,51.13774,4.68038,"http://maps.google.com/maps?q=51.13774,4.680380000000014"
Duffel,2570,51.095286,4.5099,"http://maps.google.com/maps?q=51.09528599999999,4.509900000000016"
Beerzel,2580,51.05786,4.66764,"http://maps.google.com/maps?q=51.05786,4.667640000000006"
Gestel,2590,51.1284,4.67316,"http://maps.google.com/maps?q=51.12840000000001,4.673160000000053"
Berchem (Antwerpen),2600,51.1955771,4.4188392,"http://maps.google.com/maps?q=51.1955771,4.418839199999979"
Wilrijk (Antwerpen),2610,51.1683102,4.3942868,"http://maps.google.com/maps?q=51.1683102,4.394286800000032"
Hemiksem,2620,51.14518,4.33834,"http://maps.google.com/maps?q=51.14518,4.3383400000000165"
Schelle,2627,51.125843,4.341279,"http://maps.google.com/maps?q=51.125843,4.341278999999986"
Aartselaar,2630,51.1338889,4.3847222,"http://maps.google.com/maps?q=51.1338889,4.384722199999942"
Mortsel,2640,51.1666667,4.45,"http://maps.google.com/maps?q=51.1666667,4.4500000000000455"
Edegem,2650,51.152982,4.4380338,"http://maps.google.com/maps?q=51.15298199999999,4.438033799999971"
Hoboken (Antwerpen),2660,51.1775732,4.34992,"http://maps.google.com/maps?q=51.1775732,4.349919999999997"
Walem,2800,51.0676813,4.4572147,"http://maps.google.com/maps?q=51.0676813,4.457214700000009"
Heffen,2801,51.0468914,4.4137291,"http://maps.google.com/maps?q=51.0468914,4.413729099999955"
Hombeek,2811,51.014356,4.4427697,"http://maps.google.com/maps?q=51.014356,4.442769699999985"
Muizen (Mechelen),2812,51.0103798,4.5157593,"http://maps.google.com/maps?q=51.0103798,4.515759300000013"
Rijmenam,2820,51.0037609,4.5902677,"http://maps.google.com/maps?q=51.0037609,4.590267700000027"
Blaasveld,2830,51.05583,4.37719,"http://maps.google.com/maps?q=51.05583000000001,4.377190000000041"
Reet,2840,51.1011334,4.4125882,"http://maps.google.com/maps?q=51.10113339999999,4.412588199999959"
Niel,2845,51.108922,4.334816,"http://maps.google.com/maps?q=51.108922,4.334816000000046"
Boom,2850,51.091541,4.368926,"http://maps.google.com/maps?q=51.091541,4.368925999999988"
Sint-Katelijne-Waver,2860,51.0614235,4.5055555,"http://maps.google.com/maps?q=51.0614235,4.505555500000014"
Onze-Lieve-Vrouw-Waver,2861,51.0639394,4.5754857,"http://maps.google.com/maps?q=51.0639394,4.575485699999945"
Breendonk,2870,51.04309,4.32204,"http://maps.google.com/maps?q=51.04309,4.322040000000015"
Hingene,2880,51.1032985,4.2687874,"http://maps.google.com/maps?q=51.1032985,4.268787400000065"
Lippelo,2890,51.04215,4.2586,"http://maps.google.com/maps?q=51.04215,4.258600000000001"
Schoten,2900,51.2497532,4.4977063,"http://maps.google.com/maps?q=51.2497532,4.497706300000004"
Essen,2910,51.4616667,4.4558333,"http://maps.google.com/maps?q=51.46166669999999,4.455833299999995"
Kalmthout,2920,51.38298,4.47518,"http://maps.google.com/maps?q=51.38298,4.475180000000023"
Brasschaat,2930,51.29227,4.49419,"http://maps.google.com/maps?q=51.29226999999999,4.494190000000003"
Hoevenen,2940,51.3061855,4.4047295,"http://maps.google.com/maps?q=51.3061855,4.40472950000003"
Kapellen (Antw.),2950,51.3361728,4.4481538,"http://maps.google.com/maps?q=51.3361728,4.4481538"
Sint-Job-in-'t-Goor,2960,51.29827,4.5732,"http://maps.google.com/maps?q=51.29827,4.573200000000043"
's Gravenwezel,2970,51.26292,4.56096,"http://maps.google.com/maps?q=51.26292000000001,4.560960000000023"
Halle (Kempen),2980,51.2398459,4.6465058,"http://maps.google.com/maps?q=51.2398459,4.6465058"
Loenhout,2990,51.3990063,4.6432288,"http://maps.google.com/maps?q=51.3990063,4.643228799999974"
Leuven,3000,50.8815197,4.6967578,"http://maps.google.com/maps?q=50.88151970000001,4.6967578"
Heverlee,3001,50.86386,4.69594,"http://maps.google.com/maps?q=50.86386,4.695940000000064"
Kessel-Lo (Leuven),3010,50.88514,4.73571,"http://maps.google.com/maps?q=50.88514,4.73571000000004"
Wilsele,3012,50.89047,4.69451,"http://maps.google.com/maps?q=50.89047,4.694510000000037"
Wijgmaal (Brabant),3018,50.92624,4.70195,"http://maps.google.com/maps?q=50.92624,4.701950000000011"
Veltem-Beisem,3020,50.9063184,4.620825,"http://maps.google.com/maps?q=50.9063184,4.620824999999968"
Loonbeek,3040,50.80972,4.61029,"http://maps.google.com/maps?q=50.80972,4.610289999999964"
Oud-Heverlee,3050,50.8282606,4.659534,"http://maps.google.com/maps?q=50.8282606,4.659534000000008"
Sint-Joris-Weert,3051,50.80281,4.6544,"http://maps.google.com/maps?q=50.80281,4.65440000000001"
Blanden,3052,50.82558,4.70916,"http://maps.google.com/maps?q=50.82558,4.709159999999997"
Haasrode,3053,50.83159,4.72988,"http://maps.google.com/maps?q=50.83159,4.72987999999998"
Vaalbeek,3054,50.82553,4.68938,"http://maps.google.com/maps?q=50.82553,4.689380000000028"
Korbeek-Dijle,3060,50.83807,4.6382,"http://maps.google.com/maps?q=50.83806999999999,4.6381999999999834"
Leefdaal,3061,50.84866,4.5939,"http://maps.google.com/maps?q=50.84866,4.593899999999962"
Kortenberg,3070,50.8852298,4.536917,"http://maps.google.com/maps?q=50.8852298,4.536917000000017"
Erps-Kwerps,3071,50.9006097,4.5607782,"http://maps.google.com/maps?q=50.9006097,4.560778199999959"
Everberg,3078,50.8788296,4.5712345,"http://maps.google.com/maps?q=50.8788296,4.571234499999946"
Duisburg,3080,50.81569,4.55184,"http://maps.google.com/maps?q=50.81569,4.55183999999997"
Overijse,3090,50.77381,4.53475,"http://maps.google.com/maps?q=50.77381,4.534750000000031"
Rotselaar,3110,50.9535967,4.7215113,"http://maps.google.com/maps?q=50.9535967,4.721511299999975"
Wezemaal,3111,50.9482,4.75541,"http://maps.google.com/maps?q=50.9482,4.7554099999999835"
Werchter,3118,50.97278,4.70007,"http://maps.google.com/maps?q=50.97278000000001,4.700069999999982"
Tremelo,3120,50.9956159,4.7159551,"http://maps.google.com/maps?q=50.9956159,4.715955099999974"
Baal,3128,50.99555,4.75304,"http://maps.google.com/maps?q=50.99554999999999,4.753040000000055"
Betekom,3130,50.98566,4.7817,"http://maps.google.com/maps?q=50.98566,4.781700000000001"
Keerbergen,3140,51.0057936,4.6320416,"http://maps.google.com/maps?q=51.0057936,4.6320415999999796"
Tildonk,3150,50.94327,4.64449,"http://maps.google.com/maps?q=50.94327,4.644490000000019"
Boortmeerbeek,3190,50.9803397,4.5744373,"http://maps.google.com/maps?q=50.98033969999999,4.5744373"
Hever,3191,50.995,4.55135,"http://maps.google.com/maps?q=50.995,4.551349999999957"
Gelrode,3200,50.96548,4.80272,"http://maps.google.com/maps?q=50.96548,4.802720000000022"
Langdorp,3201,50.99531,4.87083,"http://maps.google.com/maps?q=50.99531,4.870830000000069"
Rillaar,3202,50.97438,4.89422,"http://maps.google.com/maps?q=50.97438,4.8942200000000184"
Linden,3210,50.89393,4.77215,"http://maps.google.com/maps?q=50.89393,4.7721500000000106"
Binkom,3211,50.87119,4.88439,"http://maps.google.com/maps?q=50.87119,4.884389999999939"
Pellenberg,3212,50.87116,4.79603,"http://maps.google.com/maps?q=50.87116,4.796029999999973"
Kortrijk-Dutsel,3220,50.92569,4.80762,"http://maps.google.com/maps?q=50.92569,4.807620000000043"
Nieuwrode,3221,50.94955,4.83339,"http://maps.google.com/maps?q=50.94955,4.8333900000000085"
Scherpenheuvel,3270,50.9742707,4.9785767,"http://maps.google.com/maps?q=50.9742707,4.978576699999962"
Averbode,3271,51.0305467,4.977454,"http://maps.google.com/maps?q=51.0305467,4.977453999999966"
Messelbroek,3272,50.9933331,4.9274801,"http://maps.google.com/maps?q=50.9933331,4.927480100000025"
Deurne (Bt.),3290,51.03936,5.09648,"http://maps.google.com/maps?q=51.03935999999999,5.096479999999929"
Kaggevinne,3293,50.97937,5.01896,"http://maps.google.com/maps?q=50.97937,5.018959999999993"
Molenstede,3294,51.00378,5.01347,"http://maps.google.com/maps?q=51.00378,5.013469999999984"
Bost,3300,50.78839,4.94063,"http://maps.google.com/maps?q=50.78839000000001,4.940630000000056"
Meldert (Bt.),3320,50.78801,4.83772,"http://maps.google.com/maps?q=50.78801,4.83771999999999"
Outgaarden,3321,50.76521,4.91793,"http://maps.google.com/maps?q=50.76521,4.917930000000069"
Drieslinter,3350,50.84605,5.05048,"http://maps.google.com/maps?q=50.84605,5.050479999999993"
Korbeek-Lo,3360,50.86019,4.76269,"http://maps.google.com/maps?q=50.86019,4.7626900000000205"
Kerkom,3370,50.85519,4.87451,"http://maps.google.com/maps?q=50.85519,4.874509999999987"
Bunsbeek,3380,50.842165,4.9426464,"http://maps.google.com/maps?q=50.84216499999999,4.942646400000058"
Kapellen (Bt.),3381,50.8852681,4.9501898,"http://maps.google.com/maps?q=50.8852681,4.9501897999999755"
Attenrode,3384,50.8771186,4.9242614,"http://maps.google.com/maps?q=50.8771186,4.924261399999978"
Houwaart,3390,50.93291,4.85789,"http://maps.google.com/maps?q=50.93291,4.857889999999998"
Meensel-Kiezegem,3391,50.8965,4.92592,"http://maps.google.com/maps?q=50.8965,4.925920000000019"
Eliksem,3400,50.78487,5.00968,"http://maps.google.com/maps?q=50.78487,5.009680000000003"
Waasmont,3401,50.72724,5.06231,"http://maps.google.com/maps?q=50.72723999999999,5.062310000000025"
Attenhoven,3404,50.76652,5.09308,"http://maps.google.com/maps?q=50.76652,5.093079999999986"
Budingen,3440,50.8654,5.09811,"http://maps.google.com/maps?q=50.8654,5.09811000000002"
Grazen,3450,50.87478,5.13164,"http://maps.google.com/maps?q=50.87478000000001,5.131640000000061"
Rummen,3454,50.88902,5.16568,"http://maps.google.com/maps?q=50.88902,5.165680000000066"
Assent,3460,50.95248,5.0159,"http://maps.google.com/maps?q=50.95247999999999,5.015899999999988"
Molenbeek-Wersbeek,3461,50.91848,4.94157,"http://maps.google.com/maps?q=50.91848,4.941569999999956"
Ransberg,3470,50.87398,5.03683,"http://maps.google.com/maps?q=50.87398,5.036830000000009"
Hoeleden,3471,50.86828,4.9869,"http://maps.google.com/maps?q=50.86828,4.9868999999999915"
Kersbeek-Miskom,3472,50.885,4.9947222,"http://maps.google.com/maps?q=50.885,4.994722200000069"
Waanrode,3473,50.91619,5.00464,"http://maps.google.com/maps?q=50.91619,5.004639999999995"
Sint-Lambrechts-Herk,3500,50.89841,5.30741,"http://maps.google.com/maps?q=50.89841,5.307410000000004"
Wimmertingen,3501,50.88411,5.35242,"http://maps.google.com/maps?q=50.88411,5.352419999999938"
Spalbeek,3510,50.94907,5.22338,"http://maps.google.com/maps?q=50.94907,5.22338000000002"
Kuringen,3511,50.94387,5.29789,"http://maps.google.com/maps?q=50.94387,5.297890000000052"
Stevoort,3512,50.9183,5.25316,"http://maps.google.com/maps?q=50.9183,5.25315999999998"
Zonhoven,3520,50.989287,5.37246,"http://maps.google.com/maps?q=50.989287,5.372460000000046"
Helchteren,3530,51.0565512,5.3826921,"http://maps.google.com/maps?q=51.05655119999999,5.382692099999986"
Berbroek,3540,50.95032,5.20843,"http://maps.google.com/maps?q=50.95032,5.208430000000021"
Loksbergen,3545,50.93429,5.06952,"http://maps.google.com/maps?q=50.93429,5.069520000000011"
Heusden (Limb.),3550,51.02345,5.30972,"http://maps.google.com/maps?q=51.02345,5.30971999999997"
Linkhout,3560,50.96812,5.13687,"http://maps.google.com/maps?q=50.96812,5.1368700000000445"
Alken,3570,50.87609,5.30767,"http://maps.google.com/maps?q=50.87609,5.30767000000003"
Beringen,3580,51.0473373,5.2214769,"http://maps.google.com/maps?q=51.0473373,5.2214768999999706"
Beverlo,3581,51.0873,5.21898,"http://maps.google.com/maps?q=51.0873,5.218979999999988"
Koersel,3582,51.05844,5.27176,"http://maps.google.com/maps?q=51.05844,5.271759999999972"
Paal,3583,51.03953,5.17165,"http://maps.google.com/maps?q=51.03953,5.17165"
Diepenbeek,3590,50.91083,5.41336,"http://maps.google.com/maps?q=50.91083,5.4133600000000115"
Genk,3600,50.96613,5.5021,"http://maps.google.com/maps?q=50.96613,5.502100000000041"
Gellik,3620,50.8839114,5.6103183,"http://maps.google.com/maps?q=50.8839114,5.610318300000017"
Rekem,3621,50.9224749,5.6957272,"http://maps.google.com/maps?q=50.9224749,5.695727199999965"
Eisden,3630,50.9854566,5.7140769,"http://maps.google.com/maps?q=50.9854566,5.714076900000009"
Boorsem,3631,50.9408237,5.7197843,"http://maps.google.com/maps?q=50.9408237,5.719784300000015"
Kessenich,3640,51.15142,5.82297,"http://maps.google.com/maps?q=51.15141999999999,5.822969999999941"
Elen,3650,51.06655,5.75083,"http://maps.google.com/maps?q=51.06655,5.750829999999951"
Opglabbeek,3660,51.0422222,5.5825,"http://maps.google.com/maps?q=51.0422222,5.582499999999982"
As,3665,50.9997751,5.5715438,"http://maps.google.com/maps?q=50.9997751,5.571543799999972"
Niel-bij-As,3668,51.0176272,5.6045057,"http://maps.google.com/maps?q=51.0176272,5.604505700000004"
Ellikom,3670,51.12719,5.52366,"http://maps.google.com/maps?q=51.12719,5.5236600000000635"
Neeroeteren,3680,51.0918046,5.6995386,"http://maps.google.com/maps?q=51.0918046,5.699538599999983"
Zutendaal,3690,50.932735,5.577468,"http://maps.google.com/maps?q=50.932735,5.5774679999999535"
Berg (Limb.),3700,50.79183,5.49494,"http://maps.google.com/maps?q=50.79183,5.494940000000042"
Herstappe,3717,50.72653,5.426,"http://maps.google.com/maps?q=50.72653,5.425999999999931"
Kortessem,3720,50.8625531,5.3781216,"http://maps.google.com/maps?q=50.8625531,5.378121599999986"
Vliermaalroot,3721,50.8637784,5.4240097,"http://maps.google.com/maps?q=50.8637784,5.424009699999942"
Wintershoven,3722,50.85263,5.41968,"http://maps.google.com/maps?q=50.85263,5.419679999999971"
Guigoven,3723,50.8390899,5.399157,"http://maps.google.com/maps?q=50.8390899,5.399157000000059"
Vliermaal,3724,50.8394948,5.4289047,"http://maps.google.com/maps?q=50.8394948,5.4289046999999755"
Romershoven,3730,50.855984,5.4598837,"http://maps.google.com/maps?q=50.855984,5.459883699999978"
Schalkhoven,3732,50.8414306,5.4495653,"http://maps.google.com/maps?q=50.8414306,5.4495653000000175"
Beverst,3740,50.8902246,5.475171,"http://maps.google.com/maps?q=50.8902246,5.475171000000046"
Martenslinde,3742,50.8565985,5.5332305,"http://maps.google.com/maps?q=50.8565985,5.533230499999945"
Hoelbeek,3746,50.8718626,5.5564999,"http://maps.google.com/maps?q=50.8718626,5.5564999000000626"
Genoelselderen,3770,50.80297,5.538845,"http://maps.google.com/maps?q=50.80296999999999,5.5388450000000375"
Fouron-Saint-Martin,3790,50.7485199,5.8122336,"http://maps.google.com/maps?q=50.7485199,5.812233600000013"
Remersdaal,3791,50.7315308,5.8808478,"http://maps.google.com/maps?q=50.73153079999999,5.8808477999999695"
Fouron-Saint-Pierre,3792,50.738357,5.8226791,"http://maps.google.com/maps?q=50.738357,5.822679099999959"
Teuven,3793,50.7518324,5.8759546,"http://maps.google.com/maps?q=50.7518324,5.8759546"
Fouron-le-Comte,3798,50.7605269,5.7669272,"http://maps.google.com/maps?q=50.7605269,5.766927200000055"
Aalst (Limb.),3800,50.78166,5.20898,"http://maps.google.com/maps?q=50.78166,5.208979999999997"
Duras,3803,50.83552,5.14638,"http://maps.google.com/maps?q=50.83552,5.146380000000022"
Velm,3806,50.77931,5.13162,"http://maps.google.com/maps?q=50.77931,5.131619999999998"
Berlingen,3830,50.81971,5.31121,"http://maps.google.com/maps?q=50.81971,5.31120999999996"
Herten,3831,50.83517,5.32199,"http://maps.google.com/maps?q=50.83517,5.321990000000028"
Ulbeek,3832,50.84381,5.30465,"http://maps.google.com/maps?q=50.84381,5.304650000000038"
Bommershoven (Haren),3840,50.7881486,5.3876867,"http://maps.google.com/maps?q=50.7881486,5.3876867000000175"
Binderveld,3850,50.8608,5.16481,"http://maps.google.com/maps?q=50.8608,5.164809999999989"
Batsheers,3870,50.73855,5.28134,"http://maps.google.com/maps?q=50.73855,5.28134"
Boekhout,3890,50.74568,5.23353,"http://maps.google.com/maps?q=50.74568,5.233529999999973"
Borlo,3891,50.74216,5.18135,"http://maps.google.com/maps?q=50.74216,5.181350000000066"
Overpelt,3900,51.2102694,5.4225379,"http://maps.google.com/maps?q=51.21026939999999,5.422537899999952"
Sint-Huibrechts-Lille,3910,51.22251,5.49576,"http://maps.google.com/maps?q=51.22251,5.495760000000018"
Lommel,3920,51.2304193,5.3110063,"http://maps.google.com/maps?q=51.2304193,5.311006300000031"
Achel,3930,51.25224,5.47953,"http://maps.google.com/maps?q=51.25224,5.479530000000068"
Hechtel,3940,51.1252349,5.3661124,"http://maps.google.com/maps?q=51.1252349,5.36611240000002"
Eksel,3941,51.1546138,5.3943545,"http://maps.google.com/maps?q=51.1546138,5.394354499999963"
Kwaadmechelen,3945,51.10072,5.14416,"http://maps.google.com/maps?q=51.10072,5.144160000000056"
Kaulille,3950,51.18717,5.52568,"http://maps.google.com/maps?q=51.18716999999999,5.525679999999966"
Beek,3960,51.1558,5.60359,"http://maps.google.com/maps?q=51.1558,5.60358999999994"
Leopoldsburg,3970,51.1188884,5.2605406,"http://maps.google.com/maps?q=51.1188884,5.260540600000013"
Heppen,3971,51.1088735,5.2285739,"http://maps.google.com/maps?q=51.10887349999999,5.228573900000015"
Tessenderlo,3980,51.0642666,5.0881938,"http://maps.google.com/maps?q=51.0642666,5.088193799999999"
Grote-Brogel,3990,51.15435,5.50838,"http://maps.google.com/maps?q=51.15435000000001,5.508379999999988"
Glain,4000,50.64786,5.54357,"http://maps.google.com/maps?q=50.64785999999999,5.543570000000045"
Bressoux,4020,50.63994,5.6059,"http://maps.google.com/maps?q=50.63994,5.60590000000002"
Grivegnée,4030,50.6216,5.61074,"http://maps.google.com/maps?q=50.6216,5.610739999999964"
Angleur,4031,50.61135,5.59943,"http://maps.google.com/maps?q=50.61134999999999,5.599429999999984"
Chênée,4032,50.6122,5.6137,"http://maps.google.com/maps?q=50.61219999999999,5.613699999999994"
Herstal,4040,50.6787306,5.628885,"http://maps.google.com/maps?q=50.67873059999999,5.628884999999968"
Milmort,4041,50.6903579,5.5922106,"http://maps.google.com/maps?q=50.6903579,5.592210600000044"
Liers,4042,50.693646,5.5638281,"http://maps.google.com/maps?q=50.693646,5.563828100000023"
Chaudfontaine,4050,50.5896391,5.6427754,"http://maps.google.com/maps?q=50.5896391,5.642775400000005"
Vaux-sous-Chèvremont,4051,50.6010507,5.6318794,"http://maps.google.com/maps?q=50.60105069999999,5.6318794000000025"
Beaufays,4052,50.5586829,5.6387873,"http://maps.google.com/maps?q=50.5586829,5.63878729999999"
Embourg,4053,50.5903039,5.6069213,"http://maps.google.com/maps?q=50.59030389999999,5.606921300000067"
B.S.D. (Belg. Strijdkr. Duitsland),4090,50.6536196,5.6771849,"http://maps.google.com/maps?q=50.6536196,5.677184899999929"
Boncelles,4100,50.5709023,5.5364671,"http://maps.google.com/maps?q=50.5709023,5.536467099999982"
Jemeppe-sur-Meuse,4101,50.6175969,5.4951966,"http://maps.google.com/maps?q=50.6175969,5.495196599999986"
Ougrée,4102,50.6012358,5.5443411,"http://maps.google.com/maps?q=50.6012358,5.544341099999997"
Ehein,4120,50.5452937,5.4444311,"http://maps.google.com/maps?q=50.54529369999999,5.444431099999974"
Neuville-en-Condroz,4121,50.5524877,5.4511519,"http://maps.google.com/maps?q=50.5524877,5.4511519000000135"
Plainevaux,4122,50.5453134,5.524289,"http://maps.google.com/maps?q=50.5453134,5.524288999999953"
Tilff,4130,50.5640699,5.5759823,"http://maps.google.com/maps?q=50.5640699,5.575982299999964"
Dolembreux,4140,50.5360657,5.632889,"http://maps.google.com/maps?q=50.53606569999999,5.632888999999977"
Louveigné,4141,50.5302309,5.7162168,"http://maps.google.com/maps?q=50.5302309,5.716216799999984"
Anthisnes,4160,50.4812987,5.5198048,"http://maps.google.com/maps?q=50.4812987,5.519804799999974"
Villers-aux-Tours,4161,50.4978813,5.5162168,"http://maps.google.com/maps?q=50.4978813,5.516216799999938"
Hody,4162,50.4864593,5.5038981,"http://maps.google.com/maps?q=50.4864593,5.503898100000015"
Tavier,4163,50.4963213,5.4705965,"http://maps.google.com/maps?q=50.49632130000001,5.470596500000056"
Comblain-au-Pont,4170,50.4740721,5.562621,"http://maps.google.com/maps?q=50.4740721,5.562621000000036"
Poulseur,4171,50.508703,5.5785541,"http://maps.google.com/maps?q=50.508703,5.578554100000019"
Comblain-Fairon,4180,50.44628,5.54632,"http://maps.google.com/maps?q=50.44627999999999,5.546320000000037"
Filot,4181,50.42654,5.5668,"http://maps.google.com/maps?q=50.42654,5.5668000000000575"
My,4190,50.40543,5.57341,"http://maps.google.com/maps?q=50.40543,5.573409999999967"
Hannêche,4210,50.57793,5.04788,"http://maps.google.com/maps?q=50.57792999999999,5.047879999999964"
Lavoir,4217,50.550264,5.1196405,"http://maps.google.com/maps?q=50.550264,5.1196405000000595"
Couthuin,4218,50.5314526,5.1224958,"http://maps.google.com/maps?q=50.53145259999999,5.122495800000024"
Acosse,4219,50.59277,5.04657,"http://maps.google.com/maps?q=50.59276999999999,5.046569999999974"
Boëlhe,4250,50.68214,5.16646,"http://maps.google.com/maps?q=50.68214,5.166460000000029"
Omal,4252,50.65584,5.19937,"http://maps.google.com/maps?q=50.65584,5.1993700000000445"
Darion,4253,50.66458,5.18654,"http://maps.google.com/maps?q=50.66458,5.186540000000036"
Ligney,4254,50.66148,5.18227,"http://maps.google.com/maps?q=50.66148,5.182270000000017"
Corswarem,4257,50.71078,5.21324,"http://maps.google.com/maps?q=50.71078,5.213240000000042"
Avennes,4260,50.62882,5.11782,"http://maps.google.com/maps?q=50.62882,5.117819999999938"
Latinne,4261,50.62475,5.16401,"http://maps.google.com/maps?q=50.62475,5.164009999999962"
Tourinne (Lg.),4263,50.63902,5.17457,"http://maps.google.com/maps?q=50.63902,5.174570000000017"
Abolens,4280,50.67302,5.14886,"http://maps.google.com/maps?q=50.67302000000001,5.148860000000013"
Pellaines,4287,50.72588,5.00709,"http://maps.google.com/maps?q=50.72588,5.007090000000062"
Bettincourt,4300,50.71251,5.23584,"http://maps.google.com/maps?q=50.71250999999999,5.235840000000053"
Aineffe,4317,50.62557,5.25749,"http://maps.google.com/maps?q=50.62557,5.257489999999962"
Fooz,4340,50.6759853,5.4359267,"http://maps.google.com/maps?q=50.67598530000001,5.435926699999982"
Hognoul,4342,50.6814461,5.4543405,"http://maps.google.com/maps?q=50.6814461,5.454340499999944"
Freloux,4347,50.6804933,5.4065984,"http://maps.google.com/maps?q=50.68049329999999,5.406598400000007"
Lamine,4350,50.68907,5.33472,"http://maps.google.com/maps?q=50.68907,5.334720000000061"
Hodeige,4351,50.69607,5.34167,"http://maps.google.com/maps?q=50.69607000000001,5.341670000000022"
Haneffe,4357,50.63791,5.32046,"http://maps.google.com/maps?q=50.63791,5.3204600000000255"
Bergilers,4360,50.71543,5.32897,"http://maps.google.com/maps?q=50.71543,5.328970000000027"
Fize-le-Marsal,4367,50.7023863,5.3855696,"http://maps.google.com/maps?q=50.7023863,5.3855696000000535"
Awirs,4400,50.5999117,5.4061097,"http://maps.google.com/maps?q=50.5999117,5.406109700000002"
Montegnée,4420,50.64534,5.51414,"http://maps.google.com/maps?q=50.64534,5.514139999999998"
Ans,4430,50.660213,5.5265524,"http://maps.google.com/maps?q=50.660213,5.526552400000014"
Loncin,4431,50.66624,5.50521,"http://maps.google.com/maps?q=50.66623999999999,5.505210000000034"
Alleur,4432,50.67434,5.51338,"http://maps.google.com/maps?q=50.67434,5.513379999999984"
Lantin,4450,50.6885256,5.5246269,"http://maps.google.com/maps?q=50.6885256,5.52462689999993"
Voroux-lez-Liers,4451,50.6875929,5.5549161,"http://maps.google.com/maps?q=50.6875929,5.554916100000014"
Paifve,4452,50.7283378,5.5249034,"http://maps.google.com/maps?q=50.7283378,5.524903399999971"
Villers-Saint-Siméon,4453,50.7111071,5.5388369,"http://maps.google.com/maps?q=50.7111071,5.538836899999978"
Fexhe-Slins,4458,50.72003,5.56954,"http://maps.google.com/maps?q=50.72003,5.569539999999961"
Bierset,4460,50.655,5.45092,"http://maps.google.com/maps?q=50.655,5.450919999999996"
Saint-Georges-sur-Meuse,4470,50.599795,5.356902,"http://maps.google.com/maps?q=50.599795,5.356901999999991"
Clermont-sous-Huy,4480,50.569391,5.3918142,"http://maps.google.com/maps?q=50.569391,5.391814199999999"
Ben-Ahin,4500,50.5019819,5.1852407,"http://maps.google.com/maps?q=50.5019819,5.1852407000000085"
Antheit,4520,50.5489545,5.2403601,"http://maps.google.com/maps?q=50.5489545,5.240360099999975"
Fize-Fontaine,4530,50.5851,5.28301,"http://maps.google.com/maps?q=50.5851,5.28300999999999"
Chapon-Seraing,4537,50.60841,5.26904,"http://maps.google.com/maps?q=50.60841,5.269040000000018"
Ampsin,4540,50.5413781,5.2780528,"http://maps.google.com/maps?q=50.5413781,5.278052800000069"
Saint-Séverin,4550,50.5298269,5.4112136,"http://maps.google.com/maps?q=50.5298269,5.411213599999996"
Abée,4557,50.4730891,5.3564959,"http://maps.google.com/maps?q=50.4730891,5.356495900000027"
Bois-et-Borsu,4560,50.389298,5.3227509,"http://maps.google.com/maps?q=50.389298,5.32275089999996"
Vyle-et-Tharoul,4570,50.4445,5.26152,"http://maps.google.com/maps?q=50.4445,5.261520000000019"
Outrelouxhe,4577,50.5032627,5.3346305,"http://maps.google.com/maps?q=50.5032627,5.334630500000003"
Ellemelle,4590,50.46752,5.44434,"http://maps.google.com/maps?q=50.46752,5.444340000000011"
Lanaye,4600,50.7816616,5.6945353,"http://maps.google.com/maps?q=50.7816616,5.694535299999984"
Argenteau,4601,50.6961555,5.6876046,"http://maps.google.com/maps?q=50.6961555,5.687604599999986"
Cheratte,4602,50.6837494,5.6707829,"http://maps.google.com/maps?q=50.6837494,5.670782899999949"
Saint-André,4606,50.6956754,5.7530732,"http://maps.google.com/maps?q=50.6956754,5.753073200000017"
Berneau,4607,50.7427406,5.7306194,"http://maps.google.com/maps?q=50.7427406,5.730619400000023"
Neufchâteau (Lg.),4608,50.719368,5.7757062,"http://maps.google.com/maps?q=50.719368,5.775706200000059"
Bellaire,4610,50.6449882,5.6654339,"http://maps.google.com/maps?q=50.64498820000001,5.665433900000039"
Fléron,4620,50.6162686,5.6831436,"http://maps.google.com/maps?q=50.6162686,5.683143599999994"
Retinne,4621,50.6301336,5.6971829,"http://maps.google.com/maps?q=50.6301336,5.69718290000003"
Magnée,4623,50.5996569,5.6884335,"http://maps.google.com/maps?q=50.5996569,5.688433499999974"
Romsée,4624,50.610608,5.664504,"http://maps.google.com/maps?q=50.610608,5.664503999999965"
Ayeneux,4630,50.6077652,5.716811,"http://maps.google.com/maps?q=50.6077652,5.716811000000007"
Evegnée,4631,50.64217,5.70875,"http://maps.google.com/maps?q=50.64217,5.708750000000009"
Cérexhe-Heuseux,4632,50.6541483,5.7264702,"http://maps.google.com/maps?q=50.6541483,5.726470199999994"
Melen,4633,50.6460486,5.7359996,"http://maps.google.com/maps?q=50.6460486,5.735999600000014"
Chaineux,4650,50.6316775,5.8344045,"http://maps.google.com/maps?q=50.6316775,5.834404500000005"
Battice,4651,50.6474662,5.8207169,"http://maps.google.com/maps?q=50.6474662,5.820716899999979"
Xhendelesse,4652,50.6050929,5.7782579,"http://maps.google.com/maps?q=50.6050929,5.778257899999971"
Bolland,4653,50.66107,5.76037,"http://maps.google.com/maps?q=50.66107,5.760369999999966"
Charneux,4654,50.6698339,5.8041681,"http://maps.google.com/maps?q=50.66983390000001,5.80416809999997"
Mortier,4670,50.6850484,5.7434908,"http://maps.google.com/maps?q=50.6850484,5.743490800000018"
Barchon,4671,50.66866,5.69992,"http://maps.google.com/maps?q=50.66866,5.69992000000002"
Saint-Remy (Lg.),4672,50.6954433,5.7044415,"http://maps.google.com/maps?q=50.6954433,5.70444150000003"
Hermée,4680,50.7079438,5.6184661,"http://maps.google.com/maps?q=50.7079438,5.618466099999978"
Hermalle-sous-Argenteau,4681,50.7112191,5.6800351,"http://maps.google.com/maps?q=50.7112191,5.680035099999941"
Heure-le-Romain,4682,50.7313994,5.6332813,"http://maps.google.com/maps?q=50.7313994,5.6332813000000215"
Vivegnis,4683,50.6948109,5.6467328,"http://maps.google.com/maps?q=50.6948109,5.646732799999995"
Haccourt,4684,50.7303379,5.6688849,"http://maps.google.com/maps?q=50.73033789999999,5.668884899999966"
Boirs,4690,50.7509508,5.5800373,"http://maps.google.com/maps?q=50.7509508,5.580037299999958"
Eupen,4700,50.6133173,6.1011205,"http://maps.google.com/maps?q=50.6133173,6.101120499999979"
Kettenis,4701,50.6472977,6.046896,"http://maps.google.com/maps?q=50.6472977,6.046896000000061"
Lontzen,4710,50.6816693,5.9875637,"http://maps.google.com/maps?q=50.6816693,5.98756370000001"
Walhorn,4711,50.67469,6.04549,"http://maps.google.com/maps?q=50.67469,6.0454899999999725"
Kelmis,4720,50.7246443,6.0128347,"http://maps.google.com/maps?q=50.7246443,6.012834699999985"
Neu-Moresnet,4721,50.7160816,6.0213233,"http://maps.google.com/maps?q=50.7160816,6.021323299999949"
Hergenrath,4728,50.7089534,6.0314237,"http://maps.google.com/maps?q=50.7089534,6.031423700000005"
Hauset,4730,50.7104323,6.0696188,"http://maps.google.com/maps?q=50.7104323,6.069618799999944"
Eynatten,4731,50.6921704,6.0834561,"http://maps.google.com/maps?q=50.6921704,6.083456100000035"
Elsenborn,4750,50.4744,6.22028,"http://maps.google.com/maps?q=50.4744,6.2202800000000025"
Manderfeld,4760,50.3305556,6.34,"http://maps.google.com/maps?q=50.3305556,6.340000000000032"
Rocherath,4761,50.4365286,6.3005753,"http://maps.google.com/maps?q=50.4365286,6.300575299999991"
Meyerode,4770,50.32617,6.190146,"http://maps.google.com/maps?q=50.32617,6.190146000000027"
Heppenbach,4771,50.3627954,6.2185552,"http://maps.google.com/maps?q=50.3627954,6.218555199999969"
Recht,4780,50.3344,6.04333,"http://maps.google.com/maps?q=50.3344,6.043329999999969"
Schoenberg,4782,50.2887806,6.2652657,"http://maps.google.com/maps?q=50.2887806,6.265265699999986"
Lommersweiler,4783,50.2388377,6.1655027,"http://maps.google.com/maps?q=50.2388377,6.165502699999934"
Crombach,4784,50.2594213,6.068955,"http://maps.google.com/maps?q=50.2594213,6.06895499999996"
Reuland,4790,50.1966077,6.1376625,"http://maps.google.com/maps?q=50.1966077,6.137662500000033"
Thommen,4791,50.21821,6.07391,"http://maps.google.com/maps?q=50.21821,6.073910000000069"
Ensival,4800,50.5812596,5.8460072,"http://maps.google.com/maps?q=50.5812596,5.846007200000031"
Stembert,4801,50.5923294,5.8928874,"http://maps.google.com/maps?q=50.5923294,5.892887400000063"
Heusy,4802,50.5745445,5.8662821,"http://maps.google.com/maps?q=50.57454449999999,5.866282100000035"
Dison,4820,50.6105586,5.8509177,"http://maps.google.com/maps?q=50.6105586,5.850917699999968"
Andrimont,4821,50.61596,5.88541,"http://maps.google.com/maps?q=50.61596000000001,5.885409999999979"
Limbourg,4830,50.6036651,5.9357239,"http://maps.google.com/maps?q=50.6036651,5.935723899999971"
Bilstain,4831,50.6243826,5.9198628,"http://maps.google.com/maps?q=50.6243826,5.919862800000033"
Goé,4834,50.6061874,5.9567645,"http://maps.google.com/maps?q=50.6061874,5.956764499999963"
Membach,4837,50.61905,5.99501,"http://maps.google.com/maps?q=50.61904999999999,5.995009999999979"
Welkenraedt,4840,50.6568973,5.9630388,"http://maps.google.com/maps?q=50.6568973,5.963038800000049"
Henri-Chapelle,4841,50.669138,5.9271962,"http://maps.google.com/maps?q=50.669138,5.927196200000026"
Sart-lez-Spa,4845,50.516858,5.9319544,"http://maps.google.com/maps?q=50.516858,5.931954399999995"
Montzen,4850,50.707579,5.9619403,"http://maps.google.com/maps?q=50.707579,5.9619403000000375"
Gemmenich,4851,50.7453476,5.9943856,"http://maps.google.com/maps?q=50.7453476,5.994385599999987"
Hombourg,4852,50.7233365,5.9211923,"http://maps.google.com/maps?q=50.72333649999999,5.92119230000003"
Cornesse,4860,50.5723031,5.7955711,"http://maps.google.com/maps?q=50.5723031,5.795571099999961"
Soiron,4861,50.591806,5.7904364,"http://maps.google.com/maps?q=50.591806,5.790436399999976"
Forêt,4870,50.5835849,5.6998538,"http://maps.google.com/maps?q=50.5835849,5.699853800000028"
Olne,4877,50.5900615,5.7465679,"http://maps.google.com/maps?q=50.5900615,5.746567899999945"
Aubel,4880,50.7021296,5.8592295,"http://maps.google.com/maps?q=50.7021296,5.8592294999999694"
Clermont (Lg.),4890,50.6590232,5.8845514,"http://maps.google.com/maps?q=50.6590232,5.884551399999964"
Spa,4900,50.4833333,5.8666667,"http://maps.google.com/maps?q=50.4833333,5.866666699999996"
La Reid,4910,50.4893888,5.790589,"http://maps.google.com/maps?q=50.4893888,5.7905889999999545"
Ernonheid,4920,50.40338,5.6663,"http://maps.google.com/maps?q=50.40338,5.666299999999978"
Faymonville,4950,50.4027387,6.1408548,"http://maps.google.com/maps?q=50.4027387,6.140854799999943"
Bellevaux-Ligneuville,4960,50.39067,6.00577,"http://maps.google.com/maps?q=50.39067,6.005769999999984"
Francorchamps,4970,50.4543456,5.9522139,"http://maps.google.com/maps?q=50.4543456,5.952213900000061"
Fosse (Lg.),4980,50.3411966,5.8412377,"http://maps.google.com/maps?q=50.3411966,5.841237699999965"
Basse-Bodeux,4983,50.3565744,5.8305234,"http://maps.google.com/maps?q=50.3565744,5.830523399999947"
Chevron,4987,50.3802778,5.7325146,"http://maps.google.com/maps?q=50.38027779999999,5.732514600000059"
Arbrefontaine,4990,50.30276,5.83541,"http://maps.google.com/maps?q=50.30276,5.835410000000024"
Beez,5000,50.4686653,4.911834,"http://maps.google.com/maps?q=50.4686653,4.911833999999999"
Belgrade,5001,50.4707019,4.8256487,"http://maps.google.com/maps?q=50.47070189999999,4.825648699999988"
Saint-Servais,5002,50.4766054,4.8344548,"http://maps.google.com/maps?q=50.4766054,4.834454800000003"
Saint-Marc,5003,50.4915149,4.847325,"http://maps.google.com/maps?q=50.49151490000001,4.847324999999955"
Bouge,5004,50.4719872,4.8915392,"http://maps.google.com/maps?q=50.4719872,4.891539200000011"
Champion,5020,50.4958176,4.9015766,"http://maps.google.com/maps?q=50.4958176,4.9015765999999985"
Boninne,5021,50.4953566,4.9324641,"http://maps.google.com/maps?q=50.4953566,4.932464100000061"
Cognelée,5022,50.5148464,4.9070712,"http://maps.google.com/maps?q=50.5148464,4.9070712000000185"
Gelbressée,5024,50.5055017,4.956101,"http://maps.google.com/maps?q=50.5055017,4.95610099999999"
Beuzet,5030,50.53391,4.74584,"http://maps.google.com/maps?q=50.53391,4.745840000000044"
Grand-Leez,5031,50.58374,4.77469,"http://maps.google.com/maps?q=50.58374,4.774689999999964"
Bossière,5032,50.518,4.69579,"http://maps.google.com/maps?q=50.518,4.695789999999988"
Arsimont,5060,50.42853,4.6388,"http://maps.google.com/maps?q=50.42852999999999,4.6387999999999465"
Aisemont,5070,50.40504,4.65209,"http://maps.google.com/maps?q=50.40504,4.652090000000044"
Emines,5080,50.51212,4.84469,"http://maps.google.com/maps?q=50.51212,4.844690000000014"
Bovesse,5081,50.51917,4.78061,"http://maps.google.com/maps?q=50.51917,4.780610000000024"
Dave,5100,50.4143728,4.8877835,"http://maps.google.com/maps?q=50.4143728,4.887783500000069"
Erpent,5101,50.4516025,4.9050011,"http://maps.google.com/maps?q=50.4516025,4.905001099999936"
Boignée,5140,50.50024,4.60938,"http://maps.google.com/maps?q=50.50024,4.609379999999987"
Floriffoux,5150,50.45198,4.77161,"http://maps.google.com/maps?q=50.45198000000001,4.77161000000001"
Arbre (Nam.),5170,50.36612,4.82126,"http://maps.google.com/maps?q=50.36612,4.821259999999938"
Balâtre,5190,50.49935,4.6436,"http://maps.google.com/maps?q=50.49935,4.643599999999992"
Bonneville,5300,50.4719693,5.0369958,"http://maps.google.com/maps?q=50.4719693,5.0369958"
Aische-en-Refail,5310,50.59948,4.83819,"http://maps.google.com/maps?q=50.59948,4.8381899999999405"
Maillen,5330,50.377213,4.9707476,"http://maps.google.com/maps?q=50.377213,4.9707475999999815"
Crupet,5332,50.35009,4.96124,"http://maps.google.com/maps?q=50.35008999999999,4.961239999999975"
Sorinne-la-Longue,5333,50.3893,5.02551,"http://maps.google.com/maps?q=50.3893,5.02550999999994"
Florée,5334,50.3742,5.06885,"http://maps.google.com/maps?q=50.37419999999999,5.068849999999998"
Courrière,5336,50.37994,4.98532,"http://maps.google.com/maps?q=50.37994,4.9853200000000015"
Faulx-les-Tombes,5340,50.42693,5.02089,"http://maps.google.com/maps?q=50.42693,5.0208900000000085"
Evelette,5350,50.41189,5.17364,"http://maps.google.com/maps?q=50.41189,5.173639999999978"
Haillot,5351,50.44215,5.1542,"http://maps.google.com/maps?q=50.44215,5.154199999999946"
Perwez-Haillot,5352,50.45213,5.17174,"http://maps.google.com/maps?q=50.45213,5.17174"
Goesnes,5353,50.44001,5.22094,"http://maps.google.com/maps?q=50.44001,5.220940000000041"
Jallet,5354,50.44328,5.18338,"http://maps.google.com/maps?q=50.44327999999999,5.183379999999943"
Natoye,5360,50.34301,5.05804,"http://maps.google.com/maps?q=50.34301,5.058040000000005"
Mohiville,5361,50.31812,5.1924,"http://maps.google.com/maps?q=50.31812,5.1924000000000206"
Achet,5362,50.33299,5.17493,"http://maps.google.com/maps?q=50.33299,5.174930000000018"
Emptinne,5363,50.32543,5.12309,"http://maps.google.com/maps?q=50.32543,5.123090000000047"
Schaltin,5364,50.35894,5.12452,"http://maps.google.com/maps?q=50.35894,5.124519999999961"
Barvaux-Condroz,5370,50.32891,5.2609,"http://maps.google.com/maps?q=50.32891,5.260899999999992"
Méan,5372,50.36323,5.33634,"http://maps.google.com/maps?q=50.36322999999999,5.336340000000064"
Maffe,5374,50.35351,5.3114,"http://maps.google.com/maps?q=50.35351,5.311400000000049"
Miécret,5376,50.36643,5.25136,"http://maps.google.com/maps?q=50.36643,5.251359999999977"
Baillonville,5377,50.2899325,5.338665,"http://maps.google.com/maps?q=50.2899325,5.338664999999992"
Bierwart,5380,50.55582,5.03628,"http://maps.google.com/maps?q=50.55582,5.036280000000033"
Anseremme,5500,50.2384651,4.9063851,"http://maps.google.com/maps?q=50.2384651,4.906385099999966"
Lisogne,5501,50.2808581,4.9710519,"http://maps.google.com/maps?q=50.2808581,4.97105190000002"
Thynes,5502,50.2795875,4.9871679,"http://maps.google.com/maps?q=50.2795875,4.987167900000031"
Sorinnes,5503,50.2592464,4.9789243,"http://maps.google.com/maps?q=50.25924639999999,4.978924300000017"
Foy-Notre-Dame,5504,50.2469536,4.9898697,"http://maps.google.com/maps?q=50.2469536,4.989869699999986"
Anthée,5520,50.2400205,4.7612111,"http://maps.google.com/maps?q=50.2400205,4.761211099999969"
Serville,5521,50.2501038,4.78061,"http://maps.google.com/maps?q=50.2501038,4.780610000000024"
Falaën,5522,50.278965,4.7936119,"http://maps.google.com/maps?q=50.278965,4.7936118999999735"
Sommière,5523,50.2737609,4.8428128,"http://maps.google.com/maps?q=50.2737609,4.842812800000047"
Gerin,5524,50.2460666,4.8161879,"http://maps.google.com/maps?q=50.2460666,4.816187899999932"
Dorinne,5530,50.31501,4.97588,"http://maps.google.com/maps?q=50.31501,4.975879999999961"
Annevoie-Rouillon,5537,50.34738,4.84882,"http://maps.google.com/maps?q=50.34738,4.848819999999932"
Hastière-Lavaux,5540,50.2183,4.82455,"http://maps.google.com/maps?q=50.2183,4.824550000000045"
Hastière-par-Delà,5541,50.21479,4.82904,"http://maps.google.com/maps?q=50.21479,4.829039999999964"
Blaimont,5542,50.19197,4.84295,"http://maps.google.com/maps?q=50.19197,4.842949999999973"
Heer,5543,50.16347,4.83208,"http://maps.google.com/maps?q=50.16347,4.832080000000019"
Agimont,5544,50.16573,4.79594,"http://maps.google.com/maps?q=50.16573,4.795939999999973"
Alle,5550,49.8420224,4.9696522,"http://maps.google.com/maps?q=49.8420224,4.969652200000041"
Baillamont,5555,49.8994166,5.026417,"http://maps.google.com/maps?q=49.8994166,5.026417000000038"
Ciergnon,5560,50.167647,5.0881633,"http://maps.google.com/maps?q=50.167647,5.088163300000019"
Celles (Nam.),5561,50.23038,5.0057628,"http://maps.google.com/maps?q=50.23038,5.005762799999957"
Custinne,5562,50.2109877,5.0490632,"http://maps.google.com/maps?q=50.2109877,5.049063199999978"
Hour,5563,50.1617078,5.0403821,"http://maps.google.com/maps?q=50.16170779999999,5.040382099999988"
Wanlin,5564,50.1595134,5.0620298,"http://maps.google.com/maps?q=50.15951339999999,5.062029800000005"
Baronville,5570,50.1271366,4.9443786,"http://maps.google.com/maps?q=50.1271366,4.944378599999936"
Wiesme,5571,50.1484609,4.9773685,"http://maps.google.com/maps?q=50.1484609,4.977368500000011"
Focant,5572,50.1317614,5.0379324,"http://maps.google.com/maps?q=50.13176139999999,5.037932400000045"
Martouzin-Neuville,5573,50.11579,5.02107,"http://maps.google.com/maps?q=50.11579,5.021070000000009"
Pondrôme,5574,50.0988595,5.010168,"http://maps.google.com/maps?q=50.0988595,5.0101680000000215"
Bourseigne-Neuve,5575,50.02487,4.85486,"http://maps.google.com/maps?q=50.02487,4.854860000000031"
Froidfontaine,5576,50.0595602,4.9997173,"http://maps.google.com/maps?q=50.0595602,4.999717299999929"
Ave-et-Auffe,5580,50.11272,5.14246,"http://maps.google.com/maps?q=50.11272,5.142460000000028"
Achêne,5590,50.2666792,5.0456342,"http://maps.google.com/maps?q=50.2666792,5.045634199999995"
Fagnolle,5600,50.10493,4.56083,"http://maps.google.com/maps?q=50.10493,4.56083000000001"
Corenne,5620,50.25227,4.68021,"http://maps.google.com/maps?q=50.25227,4.680209999999988"
Hanzinelle,5621,50.29571,4.55989,"http://maps.google.com/maps?q=50.29571000000001,4.559889999999996"
Daussois,5630,50.2195367,4.4563959,"http://maps.google.com/maps?q=50.2195367,4.456395899999961"
Biesme,5640,50.33987,4.61024,"http://maps.google.com/maps?q=50.33987,4.610239999999976"
Furnaux,5641,50.30803,4.70497,"http://maps.google.com/maps?q=50.30803,4.704970000000003"
Ermeton-sur-Biert,5644,50.29689,4.71906,"http://maps.google.com/maps?q=50.29689,4.719060000000013"
Stave,5646,50.28002,4.65924,"http://maps.google.com/maps?q=50.28002,4.659239999999954"
Castillon,5650,50.24669,4.35428,"http://maps.google.com/maps?q=50.24669,4.354280000000017"
Berzée,5651,50.28867,4.40151,"http://maps.google.com/maps?q=50.28867,4.40151000000003"
Aublain,5660,50.06753,4.4091,"http://maps.google.com/maps?q=50.06753,4.409099999999967"
Dourbes,5670,50.09146,4.59115,"http://maps.google.com/maps?q=50.09146,4.5911499999999705"
Gimnée,5680,50.13149,4.70925,"http://maps.google.com/maps?q=50.13149,4.709249999999997"
Charleroi,6000,50.4157265,4.449213,"http://maps.google.com/maps?q=50.4157265,4.449212999999986"
Marcinelle,6001,50.3922481,4.4436699,"http://maps.google.com/maps?q=50.3922481,4.443669900000032"
Couillet,6010,50.3914084,4.4589418,"http://maps.google.com/maps?q=50.3914084,4.458941800000048"
Dampremy,6020,50.4171274,4.4308155,"http://maps.google.com/maps?q=50.4171274,4.430815499999994"
Goutroux,6030,50.4068438,4.3607435,"http://maps.google.com/maps?q=50.4068438,4.360743500000012"
Monceau-sur-Sambre,6031,50.4166487,4.376359,"http://maps.google.com/maps?q=50.4166487,4.3763589999999795"
Mont-sur-Marchienne,6032,50.3886584,4.405458,"http://maps.google.com/maps?q=50.3886584,4.405457999999953"
Jumet (Charleroi),6040,50.4427249,4.4370311,"http://maps.google.com/maps?q=50.44272489999999,4.437031100000013"
Gosselies,6041,50.4688896,4.4322027,"http://maps.google.com/maps?q=50.4688896,4.432202700000062"
Lodelinsart,6042,50.4315093,4.44718,"http://maps.google.com/maps?q=50.43150929999999,4.447180000000003"
Ransart,6043,50.4617198,4.4760083,"http://maps.google.com/maps?q=50.4617198,4.4760082999999895"
Roux,6044,50.4411759,4.3859913,"http://maps.google.com/maps?q=50.4411759,4.385991300000001"
Gilly (Charleroi),6060,50.4240349,4.4785997,"http://maps.google.com/maps?q=50.4240349,4.478599700000018"
Montignies-sur-Sambre,6061,50.4018544,4.4777803,"http://maps.google.com/maps?q=50.4018544,4.477780299999949"
Montigny-le-Tilleul,6110,50.3744413,4.3779578,"http://maps.google.com/maps?q=50.3744413,4.37795779999999"
Landelies,6111,50.3798,4.35075,"http://maps.google.com/maps?q=50.3798,4.350750000000062"
Cour-sur-Heure,6120,50.3002201,4.3894514,"http://maps.google.com/maps?q=50.3002201,4.3894513999999845"
Fontaine-l'Evêque,6140,50.4100558,4.3249526,"http://maps.google.com/maps?q=50.41005579999999,4.3249525999999605"
Forchies-la-Marche,6141,50.43664,4.32036,"http://maps.google.com/maps?q=50.43664,4.320359999999937"
Leernes,6142,50.39821,4.33217,"http://maps.google.com/maps?q=50.39821,4.332170000000019"
Anderlues,6150,50.4066667,4.2711111,"http://maps.google.com/maps?q=50.4066667,4.271111099999985"
Courcelles,6180,50.4577042,4.3662504,"http://maps.google.com/maps?q=50.45770419999999,4.366250400000013"
Gouy-lez-Piéton,6181,50.4908073,4.3342955,"http://maps.google.com/maps?q=50.4908073,4.334295500000053"
Souvret,6182,50.4506298,4.3497084,"http://maps.google.com/maps?q=50.45062979999999,4.349708400000054"
Trazegnies,6183,50.4595342,4.3171534,"http://maps.google.com/maps?q=50.4595342,4.317153400000052"
Bouffioulx,6200,50.39072,4.51635,"http://maps.google.com/maps?q=50.39071999999999,4.5163499999999885"
Frasnes-lez-Gosselies,6210,50.5379,4.45215,"http://maps.google.com/maps?q=50.5379,4.4521499999999605"
Mellet,6211,50.50554,4.47881,"http://maps.google.com/maps?q=50.50554,4.478810000000067"
Heppignies,6220,50.4845,4.49575,"http://maps.google.com/maps?q=50.4845,4.495750000000044"
Saint-Amand,6221,50.50637,4.54986,"http://maps.google.com/maps?q=50.50637,4.549859999999967"
Brye,6222,50.52397,4.55809,"http://maps.google.com/maps?q=50.52397,4.558089999999993"
Wagnelée,6223,50.52301,4.53371,"http://maps.google.com/maps?q=50.52301,4.533710000000042"
Wanfercée-Baulet,6224,50.47274,4.58783,"http://maps.google.com/maps?q=50.47273999999999,4.58782999999994"
Buzet,6230,50.5381032,4.3667175,"http://maps.google.com/maps?q=50.53810319999999,4.36671750000005"
Liberchies,6238,50.5138157,4.4215203,"http://maps.google.com/maps?q=50.51381569999999,4.421520299999997"
Pironchamps,6240,50.4316,4.52028,"http://maps.google.com/maps?q=50.4316,4.520279999999957"
Aiseau,6250,50.41114,4.58644,"http://maps.google.com/maps?q=50.41114,4.586440000000039"
Acoz,6280,50.35858,4.53391,"http://maps.google.com/maps?q=50.35858,4.533909999999992"
Boussu-lez-Walcourt,6440,50.2278614,4.3780579,"http://maps.google.com/maps?q=50.22786139999999,4.378057899999931"
Erpion,6441,50.2115372,4.3555674,"http://maps.google.com/maps?q=50.2115372,4.355567400000041"
Bailièvre,6460,50.06919,4.23844,"http://maps.google.com/maps?q=50.06919,4.238439999999969"
Virelles,6461,50.06582,4.33526,"http://maps.google.com/maps?q=50.06582,4.335260000000062"
Vaulx-lez-Chimay,6462,50.06118,4.36487,"http://maps.google.com/maps?q=50.06118,4.364869999999996"
Lompret,6463,50.06409,4.37839,"http://maps.google.com/maps?q=50.06409,4.378389999999968"
Baileux,6464,50.02871,4.37605,"http://maps.google.com/maps?q=50.02871,4.376049999999964"
Grandrieu,6470,50.2007845,4.1720392,"http://maps.google.com/maps?q=50.2007845,4.172039199999972"
Barbençon,6500,50.22307,4.28346,"http://maps.google.com/maps?q=50.22307,4.283459999999991"
Strée (Ht.),6511,50.28045,4.29443,"http://maps.google.com/maps?q=50.28044999999999,4.294430000000034"
Leers-et-Fosteau,6530,50.3044451,4.2457958,"http://maps.google.com/maps?q=50.3044451,4.245795799999996"
Biesme-sous-Thuin,6531,50.3220429,4.3087831,"http://maps.google.com/maps?q=50.3220429,4.308783100000028"
Ragnies,6532,50.3085551,4.2841508,"http://maps.google.com/maps?q=50.30855510000001,4.28415080000002"
Biercée,6533,50.3245498,4.2594865,"http://maps.google.com/maps?q=50.3245498,4.25948649999998"
Gozée,6534,50.3334575,4.351614,"http://maps.google.com/maps?q=50.33345749999999,4.3516140000000405"
Donstiennes,6536,50.2855556,4.3113889,"http://maps.google.com/maps?q=50.2855556,4.311388899999997"
Mont-Sainte-Geneviève,6540,50.3722603,4.2365499,"http://maps.google.com/maps?q=50.3722603,4.2365499"
Sars-la-Buissière,6542,50.3397381,4.2098006,"http://maps.google.com/maps?q=50.3397381,4.209800599999994"
Bienne-lez-Happart,6543,50.3521841,4.216185,"http://maps.google.com/maps?q=50.3521841,4.216184999999996"
Bersillies-l'Abbaye,6560,50.26108,4.14788,"http://maps.google.com/maps?q=50.26108,4.1478799999999865"
Fontaine-Valmont,6567,50.3180022,4.2155052,"http://maps.google.com/maps?q=50.3180022,4.215505200000052"
Momignies,6590,50.031015,4.1789941,"http://maps.google.com/maps?q=50.031015,4.178994099999954"
Macon,6591,50.05062,4.20912,"http://maps.google.com/maps?q=50.05062,4.209119999999984"
Monceau-Imbrechies,6592,50.03796,4.22773,"http://maps.google.com/maps?q=50.03796,4.227730000000065"
Macquenoise,6593,49.97559,4.17862,"http://maps.google.com/maps?q=49.97559,4.1786200000000235"
Beauwelz,6594,50.01401,4.15651,"http://maps.google.com/maps?q=50.01401,4.156510000000026"
Forge-Philippe,6596,49.96687,4.25299,"http://maps.google.com/maps?q=49.96687,4.252989999999954"
Longvilly,6600,50.0248837,5.8364836,"http://maps.google.com/maps?q=50.0248837,5.836483600000065"
Martelange,6630,49.8166667,5.7333333,"http://maps.google.com/maps?q=49.8166667,5.733333300000027"
Hollange,6637,49.9064911,5.6888102,"http://maps.google.com/maps?q=49.9064911,5.6888102000000345"
Hompré,6640,49.9443952,5.6869659,"http://maps.google.com/maps?q=49.9443952,5.686965900000018"
Juseret,6642,49.8797422,5.5492587,"http://maps.google.com/maps?q=49.8797422,5.549258699999996"
Nadrin,6660,50.159002,5.6827858,"http://maps.google.com/maps?q=50.159002,5.682785800000033"
Mont (Lux.),6661,50.1532229,5.7695926,"http://maps.google.com/maps?q=50.1532229,5.76959260000001"
Tavigny,6662,50.1088963,5.8393883,"http://maps.google.com/maps?q=50.1088963,5.839388299999996"
Mabompré,6663,50.0989674,5.7403204,"http://maps.google.com/maps?q=50.0989674,5.740320399999973"
Wibrin,6666,50.1661241,5.7175372,"http://maps.google.com/maps?q=50.1661241,5.717537200000038"
Limerlé,6670,50.1572636,5.9243825,"http://maps.google.com/maps?q=50.1572636,5.924382499999979"
Bovigny,6671,50.2250817,5.919055,"http://maps.google.com/maps?q=50.2250817,5.919055000000071"
Beho,6672,50.2196586,5.9980109,"http://maps.google.com/maps?q=50.2196586,5.998010900000054"
Cherain,6673,50.1805372,5.8653043,"http://maps.google.com/maps?q=50.1805372,5.865304299999934"
Montleban,6674,50.2120826,5.8376462,"http://maps.google.com/maps?q=50.2120826,5.837646199999995"
Amberloup,6680,50.0317221,5.5296068,"http://maps.google.com/maps?q=50.0317221,5.5296068000000105"
Lavacherie,6681,50.0528654,5.5100095,"http://maps.google.com/maps?q=50.05286539999999,5.510009500000024"
Flamierge,6686,50.0335764,5.6043762,"http://maps.google.com/maps?q=50.0335764,5.604376199999933"
Bertogne,6687,50.0908293,5.6808856,"http://maps.google.com/maps?q=50.0908293,5.6808856000000105"
Longchamps (Lux.),6688,50.0535609,5.6908206,"http://maps.google.com/maps?q=50.0535609,5.690820600000052"
Bihain,6690,50.2380618,5.808717,"http://maps.google.com/maps?q=50.2380618,5.8087170000000015"
Petit-Thier,6692,50.3026042,5.9894564,"http://maps.google.com/maps?q=50.3026042,5.989456399999995"
Grand-Halleux,6698,50.3260048,5.9066265,"http://maps.google.com/maps?q=50.3260048,5.906626500000016"
Bonnert,6700,49.7108981,5.8187693,"http://maps.google.com/maps?q=49.71089809999999,5.818769299999985"
Guirsch,6704,49.7098711,5.8286286,"http://maps.google.com/maps?q=49.7098711,5.828628600000002"
Autelbas,6706,49.6482984,5.868177,"http://maps.google.com/maps?q=49.64829839999999,5.86817700000006"
Nobressart,6717,49.7399967,5.7178818,"http://maps.google.com/maps?q=49.7399967,5.7178817999999865"
Habay-la-Neuve,6720,49.7280718,5.6460452,"http://maps.google.com/maps?q=49.7280718,5.646045200000003"
Anlier,6721,49.7718846,5.6208137,"http://maps.google.com/maps?q=49.7718846,5.620813699999985"
Habay-la-Vieille,6723,49.7234933,5.6192831,"http://maps.google.com/maps?q=49.7234933,5.6192830999999615"
Houdemont,6724,49.7188508,5.5840477,"http://maps.google.com/maps?q=49.7188508,5.584047700000042"
Bellefontaine (Lux.),6730,49.6639401,5.4964735,"http://maps.google.com/maps?q=49.6639401,5.496473499999979"
Sainte-Marie-sur-Semois,6740,49.6714022,5.5640506,"http://maps.google.com/maps?q=49.6714022,5.564050599999973"
Vance,6741,49.6713167,5.6658379,"http://maps.google.com/maps?q=49.6713167,5.665837900000042"
Chantemelle,6742,49.6529102,5.6526951,"http://maps.google.com/maps?q=49.6529102,5.65269509999996"
Buzenol,6743,49.6456653,5.5953405,"http://maps.google.com/maps?q=49.6456653,5.59534050000002"
Châtillon,6747,49.6248,5.69657,"http://maps.google.com/maps?q=49.6248,5.696570000000065"
Mussy-la-Ville,6750,49.570673,5.6620086,"http://maps.google.com/maps?q=49.570673,5.662008600000036"
Bleid,6760,49.5693096,5.6280964,"http://maps.google.com/maps?q=49.5693096,5.628096400000004"
Latour,6761,49.5575295,5.5705855,"http://maps.google.com/maps?q=49.55752950000001,5.570585499999993"
Saint-Mard,6762,49.5542548,5.5346766,"http://maps.google.com/maps?q=49.5542548,5.534676600000012"
Dampicourt,6767,49.5530556,5.4983333,"http://maps.google.com/maps?q=49.5530556,5.498333300000013"
Gérouville,6769,49.6204111,5.426936,"http://maps.google.com/maps?q=49.6204111,5.426936000000069"
Hondelange,6780,49.6334358,5.8362868,"http://maps.google.com/maps?q=49.6334358,5.836286800000039"
Sélange,6781,49.6093822,5.8466761,"http://maps.google.com/maps?q=49.6093822,5.846676099999968"
Habergy,6782,49.6145594,5.7581624,"http://maps.google.com/maps?q=49.6145594,5.7581623999999465"
Aubange,6790,49.5608954,5.808873,"http://maps.google.com/maps?q=49.5608954,5.808872999999949"
Athus,6791,49.5792831,5.8497214,"http://maps.google.com/maps?q=49.5792831,5.849721400000021"
Halanzy,6792,49.5594682,5.7431355,"http://maps.google.com/maps?q=49.5594682,5.743135499999994"
Bras,6800,49.9750202,5.3892229,"http://maps.google.com/maps?q=49.9750202,5.38922290000005"
Izel,6810,49.6937299,5.3722119,"http://maps.google.com/maps?q=49.6937299,5.372211900000025"
Les Bulles,6811,49.7127741,5.4201396,"http://maps.google.com/maps?q=49.7127741,5.42013959999997"
Suxy,6812,49.7639751,5.3993485,"http://maps.google.com/maps?q=49.7639751,5.399348499999974"
Termes,6813,49.7078398,5.4578124,"http://maps.google.com/maps?q=49.7078398,5.457812399999966"
Fontenoille,6820,49.7150554,5.2343041,"http://maps.google.com/maps?q=49.7150554,5.234304100000031"
Lacuisine,6821,49.7163512,5.3173471,"http://maps.google.com/maps?q=49.7163512,5.317347100000006"
Villers-Devant-Orval,6823,49.6196324,5.3314402,"http://maps.google.com/maps?q=49.61963240000001,5.3314401999999745"
Chassepierre,6824,49.7076672,5.2603388,"http://maps.google.com/maps?q=49.7076672,5.2603387999999995"
Les Hayons,6830,49.8129802,5.1453939,"http://maps.google.com/maps?q=49.8129802,5.145393900000045"
Noirefontaine,6831,49.8202036,5.0942677,"http://maps.google.com/maps?q=49.8202036,5.094267700000046"
Sensenruth,6832,49.8244628,5.0762113,"http://maps.google.com/maps?q=49.8244628,5.076211300000068"
Ucimont,6833,49.8317003,5.058436,"http://maps.google.com/maps?q=49.83170029999999,5.058436000000029"
Bellevaux,6834,49.8405538,5.1101023,"http://maps.google.com/maps?q=49.8405538,5.110102299999994"
Dohan,6836,49.7960885,5.1428394,"http://maps.google.com/maps?q=49.7960885,5.142839399999957"
Corbion,6838,49.7971683,5.0076838,"http://maps.google.com/maps?q=49.7971683,5.007683799999995"
Grandvoir,6840,49.85835,5.37272,"http://maps.google.com/maps?q=49.85834999999999,5.372719999999958"
Carlsbourg,6850,49.8947012,5.0822437,"http://maps.google.com/maps?q=49.89470120000001,5.082243699999935"
Nollevaux,6851,49.8712705,5.1210695,"http://maps.google.com/maps?q=49.87127049999999,5.121069499999976"
Maissin,6852,49.9646508,5.1791072,"http://maps.google.com/maps?q=49.9646508,5.179107199999976"
Framont,6853,49.9192841,5.1605186,"http://maps.google.com/maps?q=49.9192841,5.160518599999932"
Fays-les-Veneurs,6856,49.8577639,5.1643785,"http://maps.google.com/maps?q=49.85776389999999,5.164378499999998"
Assenois,6860,49.8015106,5.4651471,"http://maps.google.com/maps?q=49.80151060000001,5.465147099999967"
Arville,6870,50.0323784,5.3193343,"http://maps.google.com/maps?q=50.0323784,5.319334300000037"
Auby-sur-Semois,6880,49.8158343,5.1831373,"http://maps.google.com/maps?q=49.8158343,5.1831372999999985"
Saint-Médard,6887,49.81182,5.32805,"http://maps.google.com/maps?q=49.81182,5.328049999999962"
Anloy,6890,49.9494863,5.221726,"http://maps.google.com/maps?q=49.9494863,5.22172599999999"
Aye,6900,50.22493,5.29695,"http://maps.google.com/maps?q=50.22493,5.296950000000038"
Sohier,6920,50.068318,5.0678053,"http://maps.google.com/maps?q=50.068318,5.067805300000032"
Chanly,6921,50.0796147,5.1540758,"http://maps.google.com/maps?q=50.0796147,5.154075799999987"
Halma,6922,50.0757255,5.1363449,"http://maps.google.com/maps?q=50.0757255,5.13634490000004"
Lomprez,6924,50.0762069,5.092396,"http://maps.google.com/maps?q=50.0762069,5.092396000000008"
Bure,6927,50.0883647,5.2594882,"http://maps.google.com/maps?q=50.0883647,5.259488199999964"
Gembes,6929,49.9948698,5.0656928,"http://maps.google.com/maps?q=49.9948698,5.065692799999965"
Barvaux-sur-Ourthe,6940,50.34768,5.49159,"http://maps.google.com/maps?q=50.34768,5.491589999999974"
Bende,6941,50.41954,5.41544,"http://maps.google.com/maps?q=50.41954,5.41543999999999"
Harsin,6950,50.1735662,5.3479488,"http://maps.google.com/maps?q=50.1735662,5.34794880000004"
Bande,6951,50.1670102,5.41552,"http://maps.google.com/maps?q=50.1670102,5.415520000000015"
Grune,6952,50.1547678,5.3812924,"http://maps.google.com/maps?q=50.15476779999999,5.381292400000007"
Ambly,6953,50.1443527,5.3117953,"http://maps.google.com/maps?q=50.1443527,5.311795299999972"
Dochamps,6960,50.23277,5.62343,"http://maps.google.com/maps?q=50.23277,5.623429999999985"
Tenneville,6970,50.0859055,5.461307,"http://maps.google.com/maps?q=50.0859055,5.461307000000033"
Champlon,6971,50.1074532,5.5021264,"http://maps.google.com/maps?q=50.10745319999999,5.502126399999952"
Erneuville,6972,50.1128285,5.5493302,"http://maps.google.com/maps?q=50.1128285,5.549330199999986"
Beausaint,6980,50.1700454,5.5539293,"http://maps.google.com/maps?q=50.1700454,5.553929299999936"
Samrée,6982,50.2002587,5.6590863,"http://maps.google.com/maps?q=50.2002587,5.659086300000013"
Ortho,6983,50.1250676,5.6139791,"http://maps.google.com/maps?q=50.1250676,5.613979100000051"
Hives,6984,50.1505142,5.5776532,"http://maps.google.com/maps?q=50.1505142,5.577653199999986"
Halleux,6986,50.1721642,5.5010126,"http://maps.google.com/maps?q=50.1721642,5.501012599999967"
Beffe,6987,50.24502,5.52355,"http://maps.google.com/maps?q=50.24502,5.52355"
Fronville,6990,50.29448,5.42208,"http://maps.google.com/maps?q=50.29448,5.422080000000051"
Amonines,6997,50.26474,5.55809,"http://maps.google.com/maps?q=50.26474,5.558089999999993"
Mons,7000,50.4542165,3.9566904,"http://maps.google.com/maps?q=50.4542165,3.9566904000000704"
S.H.A.P.E. België,7010,50.5051355,3.9823343,"http://maps.google.com/maps?q=50.50513549999999,3.9823343000000477"
Ghlin,7011,50.4742291,3.9020509,"http://maps.google.com/maps?q=50.4742291,3.9020508999999493"
Flénu,7012,50.4336915,3.8889901,"http://maps.google.com/maps?q=50.43369149999999,3.888990100000001"
Maisières,7020,50.4885712,3.965319,"http://maps.google.com/maps?q=50.4885712,3.9653190000000222"
Havré,7021,50.4639119,4.0453246,"http://maps.google.com/maps?q=50.4639119,4.045324599999958"
Harmignies,7022,50.4060459,4.0174614,"http://maps.google.com/maps?q=50.4060459,4.017461400000002"
Ciply,7024,50.4219839,3.9462109,"http://maps.google.com/maps?q=50.4219839,3.9462108999999828"
Saint-Symphorien,7030,50.4378687,4.0118304,"http://maps.google.com/maps?q=50.4378687,4.011830400000008"
Villers-Saint-Ghislain,7031,50.4320932,4.0409306,"http://maps.google.com/maps?q=50.4320932,4.040930600000024"
Spiennes,7032,50.4251859,3.989321,"http://maps.google.com/maps?q=50.4251859,3.989321000000018"
Cuesmes,7033,50.4362266,3.9240678,"http://maps.google.com/maps?q=50.4362266,3.924067799999989"
Obourg,7034,50.4742413,4.0091225,"http://maps.google.com/maps?q=50.4742413,4.0091224999999895"
Asquillies,7040,50.40066,3.95447,"http://maps.google.com/maps?q=50.40065999999999,3.954470000000015"
Givry,7041,50.37943,4.03584,"http://maps.google.com/maps?q=50.37943,4.035840000000007"
Erbaut,7050,50.5329492,3.8841662,"http://maps.google.com/maps?q=50.5329492,3.8841661999999815"
Horrues,7060,50.6085349,4.0427256,"http://maps.google.com/maps?q=50.6085349,4.04272560000004"
Casteau (Soignies),7061,50.5159354,4.0133385,"http://maps.google.com/maps?q=50.5159354,4.013338500000032"
Naast,7062,50.5543555,4.0991332,"http://maps.google.com/maps?q=50.5543555,4.099133199999983"
Chaussée-Notre-Dame-Louvignies,7063,50.5927405,3.9983062,"http://maps.google.com/maps?q=50.5927405,3.998306200000002"
Gottignies,7070,50.49657,4.06031,"http://maps.google.com/maps?q=50.49657,4.060309999999959"
Eugies (Frameries),7080,50.39021,3.88777,"http://maps.google.com/maps?q=50.39021,3.887770000000046"
Hennuyères,7090,50.63843,4.1696,"http://maps.google.com/maps?q=50.63843,4.169599999999946"
Haine-Saint-Paul,7100,50.45313,4.19126,"http://maps.google.com/maps?q=50.45312999999999,4.191260000000057"
Boussoit,7110,50.46022,4.07783,"http://maps.google.com/maps?q=50.46022,4.077829999999949"
Croix-lez-Rouveroy,7120,50.36152,4.07692,"http://maps.google.com/maps?q=50.36152000000001,4.076919999999973"
Battignies,7130,50.41691,4.16889,"http://maps.google.com/maps?q=50.41690999999999,4.168890000000033"
Waudrez,7131,50.41332,4.14948,"http://maps.google.com/maps?q=50.41332,4.14948000000004"
Buvrinnes,7133,50.38873,4.20524,"http://maps.google.com/maps?q=50.38873,4.205240000000003"
Epinois,7134,50.40558,4.20728,"http://maps.google.com/maps?q=50.40558000000001,4.207279999999969"
Morlanwelz-Mariemont,7140,50.4523812,4.2297719,"http://maps.google.com/maps?q=50.4523812,4.22977190000006"
Carnières,7141,50.44139,4.2549,"http://maps.google.com/maps?q=50.44139,4.2549000000000206"
Godarville,7160,50.49626,4.28842,"http://maps.google.com/maps?q=50.49626,4.288419999999974"
Bellecourt,7170,50.48307,4.25438,"http://maps.google.com/maps?q=50.48307,4.254379999999969"
Seneffe,7180,50.5285674,4.2721491,"http://maps.google.com/maps?q=50.5285674,4.272149099999979"
Arquennes,7181,50.5678375,4.2748602,"http://maps.google.com/maps?q=50.5678375,4.274860200000035"
Ecaussinnes-d'Enghien,7190,50.5608812,4.1538788,"http://maps.google.com/maps?q=50.5608812,4.1538788000000295"
Ecaussinnes-Lalaing,7191,50.5700581,4.1775465,"http://maps.google.com/maps?q=50.5700581,4.177546500000062"
Boussu,7300,50.425877,3.7969506,"http://maps.google.com/maps?q=50.425877,3.7969505999999456"
Hornu,7301,50.43634,3.82627,"http://maps.google.com/maps?q=50.43633999999999,3.8262700000000223"
Bernissart,7320,50.4824696,3.6459245,"http://maps.google.com/maps?q=50.48246959999999,3.6459244999999783"
Blaton,7321,50.4992803,3.6598433,"http://maps.google.com/maps?q=50.4992803,3.659843300000034"
Pommeroeul,7322,50.4623107,3.7129612,"http://maps.google.com/maps?q=50.4623107,3.712961199999995"
Saint-Ghislain,7330,50.4490864,3.8183635,"http://maps.google.com/maps?q=50.4490864,3.818363500000032"
Baudour,7331,50.4832756,3.8377399,"http://maps.google.com/maps?q=50.4832756,3.837739899999974"
Neufmaison,7332,50.5293542,3.7936731,"http://maps.google.com/maps?q=50.52935420000001,3.793673099999978"
Tertre,7333,50.4668162,3.8118542,"http://maps.google.com/maps?q=50.4668162,3.8118541999999707"
Hautrage,7334,50.4792056,3.7659709,"http://maps.google.com/maps?q=50.4792056,3.7659708999999566"
Pâturages,7340,50.4048263,3.8383261,"http://maps.google.com/maps?q=50.4048263,3.8383261000000175"
Hainin,7350,50.4306618,3.7656597,"http://maps.google.com/maps?q=50.4306618,3.7656597000000147"
Blaugies,7370,50.372016,3.8058371,"http://maps.google.com/maps?q=50.372016,3.8058370999999624"
Baisieux,7380,50.390588,3.697523,"http://maps.google.com/maps?q=50.39058800000001,3.6975230000000465"
Audregnies,7382,50.3830616,3.7175716,"http://maps.google.com/maps?q=50.3830616,3.717571600000042"
Angre,7387,50.36839,3.69813,"http://maps.google.com/maps?q=50.36839,3.698129999999992"
Wasmuel,7390,50.4456324,3.8453838,"http://maps.google.com/maps?q=50.4456324,3.845383800000036"
Ere,7500,50.5809075,3.3683528,"http://maps.google.com/maps?q=50.5809075,3.368352800000025"
Orcq,7501,50.6028664,3.3473905,"http://maps.google.com/maps?q=50.6028664,3.3473904999999604"
Esplechin,7502,50.5736959,3.3039872,"http://maps.google.com/maps?q=50.5736959,3.3039871999999377"
Froyennes,7503,50.6229047,3.3471214,"http://maps.google.com/maps?q=50.6229047,3.347121399999992"
Froidmont,7504,50.5784046,3.3280009,"http://maps.google.com/maps?q=50.5784046,3.3280009000000064"
Willemeau,7506,50.573464,3.3491191,"http://maps.google.com/maps?q=50.573464,3.3491191000000526"
Ramegnies-Chin,7520,50.651422,3.3369103,"http://maps.google.com/maps?q=50.651422,3.3369102999999996"
Chercq,7521,50.589481,3.4220483,"http://maps.google.com/maps?q=50.589481,3.4220483000000286"
Blandain,7522,50.6250532,3.3037827,"http://maps.google.com/maps?q=50.6250532,3.303782700000056"
Gaurain-Ramecroix (Tournai),7530,50.5938686,3.4892888,"http://maps.google.com/maps?q=50.5938686,3.4892887999999402"
Havinnes,7531,50.6157317,3.463517,"http://maps.google.com/maps?q=50.6157317,3.4635170000000244"
Beclers,7532,50.6209471,3.5046928,"http://maps.google.com/maps?q=50.6209471,3.5046927999999298"
Thimougies,7533,50.6345381,3.5096897,"http://maps.google.com/maps?q=50.6345381,3.509689699999967"
Barry,7534,50.5848568,3.5416068,"http://maps.google.com/maps?q=50.5848568,3.541606799999954"
Vaulx (Tournai),7536,50.5903852,3.4334752,"http://maps.google.com/maps?q=50.5903852,3.4334751999999753"
Vezon,7538,50.5719086,3.5002803,"http://maps.google.com/maps?q=50.5719086,3.500280299999986"
Kain,7540,50.6379973,3.3788194,"http://maps.google.com/maps?q=50.63799729999999,3.3788193999999976"
Mont-Saint-Aubert,7542,50.6548281,3.4040353,"http://maps.google.com/maps?q=50.6548281,3.4040353000000323"
Mourcourt,7543,50.6531232,3.4442619,"http://maps.google.com/maps?q=50.6531232,3.444261900000015"
Warchin,7548,50.6103448,3.4233289,"http://maps.google.com/maps?q=50.6103448,3.4233289000000013"
Péruwelz,7600,50.5149368,3.6013594,"http://maps.google.com/maps?q=50.5149368,3.6013593999999785"
Roucourt,7601,50.5291691,3.5871404,"http://maps.google.com/maps?q=50.5291691,3.587140399999953"
Bury,7602,50.5424563,3.5934527,"http://maps.google.com/maps?q=50.5424563,3.5934526999999434"
Bon-Secours,7603,50.4974738,3.6073123,"http://maps.google.com/maps?q=50.4974738,3.6073122999999896"
Baugnies,7604,50.5615397,3.5517755,"http://maps.google.com/maps?q=50.5615397,3.5517754999999624"
Wiers,7608,50.5083673,3.5327736,"http://maps.google.com/maps?q=50.5083673,3.5327736000000414"
Rumes,7610,50.554887,3.3022239,"http://maps.google.com/maps?q=50.554887,3.3022238999999445"
La Glanerie,7611,50.532325,3.305943,"http://maps.google.com/maps?q=50.532325,3.3059430000000702"
Taintignies,7618,50.5467427,3.3403627,"http://maps.google.com/maps?q=50.5467427,3.3403627000000142"
Bléharies,7620,50.513041,3.4148305,"http://maps.google.com/maps?q=50.513041,3.4148304999999937"
Lesdain,7621,50.5204844,3.3892118,"http://maps.google.com/maps?q=50.5204844,3.389211799999998"
Laplaigne,7622,50.5207793,3.4469774,"http://maps.google.com/maps?q=50.5207793,3.446977400000037"
Rongy,7623,50.5084038,3.3911678,"http://maps.google.com/maps?q=50.5084038,3.3911677999999483"
Howardries,7624,50.506075,3.3557201,"http://maps.google.com/maps?q=50.506075,3.355720099999985"
Maubray,7640,50.5314797,3.495748,"http://maps.google.com/maps?q=50.5314797,3.4957480000000487"
Bruyelle,7641,50.5573826,3.4276343,"http://maps.google.com/maps?q=50.5573826,3.4276343000000224"
Calonne,7642,50.5780363,3.4365062,"http://maps.google.com/maps?q=50.5780363,3.43650619999994"
Fontenoy,7643,50.567749,3.4736321,"http://maps.google.com/maps?q=50.567749,3.4736321000000316"
Luingne,7700,50.738441,3.2337149,"http://maps.google.com/maps?q=50.738441,3.2337148999999954"
Dottenijs,7711,50.7281602,3.3048918,"http://maps.google.com/maps?q=50.7281602,3.3048917999999503"
Herseaux,7712,50.722568,3.2326156,"http://maps.google.com/maps?q=50.722568,3.232615600000031"
Bailleul,7730,50.6697693,3.3186808,"http://maps.google.com/maps?q=50.6697693,3.3186808000000383"
Warcoing,7740,50.7043825,3.3439836,"http://maps.google.com/maps?q=50.7043825,3.3439836000000014"
Hérinnes-lez-Pecq,7742,50.701341,3.3633472,"http://maps.google.com/maps?q=50.701341,3.363347200000021"
Esquelmes,7743,50.6656092,3.3479165,"http://maps.google.com/maps?q=50.6656092,3.3479164999999966"
Amougies,7750,50.74428,3.5068355,"http://maps.google.com/maps?q=50.74428,3.5068354999999656"
Escanaffles,7760,50.756936,3.445065,"http://maps.google.com/maps?q=50.756936,3.4450649999999996"
Comines,7780,50.7687459,2.9997061,"http://maps.google.com/maps?q=50.76874590000001,2.999706100000026"
Houthem (Comines),7781,50.7867816,2.9641654,"http://maps.google.com/maps?q=50.7867816,2.964165399999956"
Ploegsteert,7782,50.7323288,2.8733669,"http://maps.google.com/maps?q=50.7323288,2.8733669000000646"
Bizet,7783,50.703152,2.8975904,"http://maps.google.com/maps?q=50.703152,2.897590400000013"
Bas-Warneton,7784,50.7591263,2.9610169,"http://maps.google.com/maps?q=50.75912630000001,2.961016900000004"
Lanquesaint,7800,50.6532856,3.8065319,"http://maps.google.com/maps?q=50.6532856,3.8065318999999818"
Irchonwelz,7801,50.6179756,3.7590505,"http://maps.google.com/maps?q=50.6179756,3.7590505000000576"
Ormeignies,7802,50.5946299,3.7510985,"http://maps.google.com/maps?q=50.5946299,3.751098500000012"
Bouvignies,7803,50.6467287,3.7664662,"http://maps.google.com/maps?q=50.6467287,3.766466199999968"
Ostiches,7804,50.678456,3.7590705,"http://maps.google.com/maps?q=50.678456,3.759070500000007"
Maffle,7810,50.6169973,3.8057979,"http://maps.google.com/maps?q=50.61699729999999,3.805797900000016"
Arbre (Ht.),7811,50.6124045,3.8165211,"http://maps.google.com/maps?q=50.6124045,3.8165211000000454"
Houtaing,7812,50.6405033,3.679122,"http://maps.google.com/maps?q=50.64050330000001,3.6791220000000067"
Ghislenghien,7822,50.6565066,3.8774062,"http://maps.google.com/maps?q=50.6565066,3.877406199999996"
Gibecq,7823,50.6383168,3.887925,"http://maps.google.com/maps?q=50.63831680000001,3.8879249999999956"
Bassilly,7830,50.6767826,3.9336848,"http://maps.google.com/maps?q=50.6767826,3.9336848000000373"
Lettelingen,7850,50.6913651,4.0829937,"http://maps.google.com/maps?q=50.6913651,4.0829936999999745"
Lessines,7860,50.7047124,3.8348594,"http://maps.google.com/maps?q=50.7047124,3.8348594000000276"
Papignies,7861,50.6863766,3.8165855,"http://maps.google.com/maps?q=50.6863766,3.8165854999999738"
Ogy,7862,50.7207024,3.7806795,"http://maps.google.com/maps?q=50.7207024,3.7806795000000193"
Ghoy,7863,50.7298753,3.8103491,"http://maps.google.com/maps?q=50.7298753,3.8103490999999394"
Deux-Acren,7864,50.7289132,3.8540312,"http://maps.google.com/maps?q=50.7289132,3.8540312000000085"
Bois-de-Lessines,7866,50.6968993,3.8881698,"http://maps.google.com/maps?q=50.6968993,3.888169800000014"
Bauffe,7870,50.56992,3.8531354,"http://maps.google.com/maps?q=50.56992,3.853135400000042"
Flobecq,7880,50.7367,3.73852,"http://maps.google.com/maps?q=50.7367,3.738519999999994"
Lahamaide,7890,50.6949026,3.724979,"http://maps.google.com/maps?q=50.6949026,3.724978999999962"
Grandmetz,7900,50.6230881,3.6310729,"http://maps.google.com/maps?q=50.6230881,3.6310728999999355"
Thieulain,7901,50.6179227,3.6051759,"http://maps.google.com/maps?q=50.6179227,3.6051758999999493"
Blicquy,7903,50.5871723,3.6916495,"http://maps.google.com/maps?q=50.58717230000001,3.6916495000000396"
Pipaix,7904,50.5836922,3.5787649,"http://maps.google.com/maps?q=50.58369219999999,3.57876490000001"
Gallaix,7906,50.6053041,3.5739204,"http://maps.google.com/maps?q=50.6053041,3.57392040000002"
Anvaing,7910,50.6827667,3.5610313,"http://maps.google.com/maps?q=50.68276669999999,3.561031299999968"
Buissenal,7911,50.6642045,3.6557135,"http://maps.google.com/maps?q=50.6642045,3.655713500000047"
Dergneau,7912,50.7132742,3.5689855,"http://maps.google.com/maps?q=50.7132742,3.5689855000000534"
Cambron-Casteau,7940,50.5890218,3.8801355,"http://maps.google.com/maps?q=50.5890218,3.8801355000000513"
Attre,7941,50.6067064,3.8384917,"http://maps.google.com/maps?q=50.6067064,3.838491699999963"
Mévergnies-lez-Lens,7942,50.60734,3.8525209,"http://maps.google.com/maps?q=50.60734000000001,3.852520899999945"
Gages,7943,50.606841,3.8905197,"http://maps.google.com/maps?q=50.606841,3.890519700000027"
Grosage,7950,50.54469,3.75643,"http://maps.google.com/maps?q=50.54469,3.756430000000023"
Tongre-Notre-Dame,7951,50.5814329,3.7755504,"http://maps.google.com/maps?q=50.5814329,3.775550399999929"
Beloeil,7970,50.5317621,3.7256357,"http://maps.google.com/maps?q=50.53176209999999,3.725635699999998"
Basècles,7971,50.5259119,3.6488934,"http://maps.google.com/maps?q=50.5259119,3.64889340000002"
Aubechies,7972,50.5724436,3.6814062,"http://maps.google.com/maps?q=50.5724436,3.6814061999999694"
Grandglise,7973,50.505325,3.6942392,"http://maps.google.com/maps?q=50.505325,3.69423919999997"
Koolkerke,8000,51.2403327,3.248109,"http://maps.google.com/maps?q=51.2403327,3.2481089999999995"
Hertsberge,8020,51.1053969,3.2730671,"http://maps.google.com/maps?q=51.1053969,3.2730670999999347"
Sint-Andries,8200,51.1972024,3.1794755,"http://maps.google.com/maps?q=51.1972024,3.179475499999967"
Loppem,8210,51.1559088,3.1959225,"http://maps.google.com/maps?q=51.1559088,3.1959225000000515"
Aartrijke,8211,51.1191688,3.0900794,"http://maps.google.com/maps?q=51.1191688,3.090079400000036"
Knokke,8300,51.3467066,3.2893221,"http://maps.google.com/maps?q=51.3467066,3.2893220999999357"
Heist-aan-Zee,8301,51.3403638,3.2400417,"http://maps.google.com/maps?q=51.3403638,3.240041700000006"
Assebroek,8310,51.2020234,3.2550607,"http://maps.google.com/maps?q=51.20202339999999,3.255060700000058"
Hoeke,8340,51.2916219,3.336729,"http://maps.google.com/maps?q=51.2916219,3.336728999999991"
Uitkerke,8370,51.3033,3.1429,"http://maps.google.com/maps?q=51.30330000000001,3.142900000000054"
Houtave,8377,51.2359799,3.1104678,"http://maps.google.com/maps?q=51.2359799,3.1104678000000376"
Dudzele,8380,51.2736603,3.2247366,"http://maps.google.com/maps?q=51.2736603,3.2247366000000284"
Stene,8400,51.2244157,2.9089685,"http://maps.google.com/maps?q=51.22441569999999,2.9089685000000145"
Klemskerke,8420,51.2433832,3.0229766,"http://maps.google.com/maps?q=51.2433832,3.0229765999999927"
Vlissegem,8421,51.2598471,3.0638644,"http://maps.google.com/maps?q=51.25984709999999,3.0638644000000568"
Middelkerke,8430,51.1798869,2.8060231,"http://maps.google.com/maps?q=51.1798869,2.8060230999999476"
Wilskerke,8431,51.1796383,2.825943,"http://maps.google.com/maps?q=51.1796383,2.825943000000052"
Leffinge,8432,51.17567,2.87711,"http://maps.google.com/maps?q=51.17567,2.877110000000016"
Mannekensvere,8433,51.1259337,2.8181826,"http://maps.google.com/maps?q=51.1259337,2.8181826"
Lombardsijde,8434,51.1478198,2.7565537,"http://maps.google.com/maps?q=51.1478198,2.7565537000000404"
Bredene,8450,51.2345888,2.9728091,"http://maps.google.com/maps?q=51.2345888,2.9728090999999495"
Ettelgem,8460,51.1795852,3.0302382,"http://maps.google.com/maps?q=51.1795852,3.0302381999999852"
Moere,8470,51.1225897,2.9559016,"http://maps.google.com/maps?q=51.1225897,2.955901600000061"
Bekegem,8480,51.1597289,3.0453899,"http://maps.google.com/maps?q=51.1597289,3.045389900000032"
Snellegem,8490,51.1690484,3.1230877,"http://maps.google.com/maps?q=51.1690484,3.123087700000042"
Kortrijk,8500,50.8194894,3.2577076,"http://maps.google.com/maps?q=50.81948939999999,3.2577076000000034"
Bissegem,8501,50.8241103,3.2280954,"http://maps.google.com/maps?q=50.82411030000001,3.2280954000000293"
Bellegem,8510,50.776603,3.2784441,"http://maps.google.com/maps?q=50.77660299999999,3.2784441000000015"
Aalbeke,8511,50.7784023,3.2299377,"http://maps.google.com/maps?q=50.7784023,3.2299376999999367"
Kuurne,8520,50.85397,3.287,"http://maps.google.com/maps?q=50.85397,3.2870000000000346"
Harelbeke,8530,50.8455798,3.3121073,"http://maps.google.com/maps?q=50.8455798,3.3121072999999797"
Bavikhove,8531,50.8754986,3.3112054,"http://maps.google.com/maps?q=50.8754986,3.3112054000000626"
Deerlijk,8540,50.85098,3.353722,"http://maps.google.com/maps?q=50.85098,3.3537220000000616"
Zwevegem,8550,50.8080392,3.3505258,"http://maps.google.com/maps?q=50.8080392,3.350525800000014"
Heestert,8551,50.7826441,3.410366,"http://maps.google.com/maps?q=50.7826441,3.4103660000000673"
Moen,8552,50.7699733,3.3974267,"http://maps.google.com/maps?q=50.7699733,3.3974266999999827"
Otegem,8553,50.8081889,3.4239803,"http://maps.google.com/maps?q=50.8081889,3.4239803000000393"
Sint-Denijs,8554,50.7530651,3.3653137,"http://maps.google.com/maps?q=50.7530651,3.3653137000000015"
Gullegem,8560,50.8447689,3.1989718,"http://maps.google.com/maps?q=50.8447689,3.198971799999981"
Gijzelbrechtegem,8570,50.8285391,3.5058127,"http://maps.google.com/maps?q=50.8285391,3.5058126999999786"
Kaster,8572,50.8131679,3.4938322,"http://maps.google.com/maps?q=50.8131679,3.4938322000000426"
Tiegem,8573,50.8086089,3.4752664,"http://maps.google.com/maps?q=50.8086089,3.4752664000000095"
Avelgem,8580,50.7790895,3.4511795,"http://maps.google.com/maps?q=50.7790895,3.4511794999999665"
Kerkhove,8581,50.7983592,3.5006455,"http://maps.google.com/maps?q=50.7983592,3.5006455000000187"
Outrijve,8582,50.7560066,3.4292885,"http://maps.google.com/maps?q=50.7560066,3.429288499999984"
Bossuit,8583,50.7481174,3.4072881,"http://maps.google.com/maps?q=50.7481174,3.4072880999999597"
Espierres,8587,50.7184934,3.35537,"http://maps.google.com/maps?q=50.7184934,3.3553699999999935"
Beerst,8600,51.0589145,2.8868758,"http://maps.google.com/maps?q=51.0589145,2.8868757999999843"
Handzame,8610,51.025671,3.0031283,"http://maps.google.com/maps?q=51.025671,3.0031283000000712"
Ramskapelle (Nieuwpoort),8620,51.1095483,2.7620106,"http://maps.google.com/maps?q=51.1095483,2.7620105999999396"
Avekapelle,8630,51.0663475,2.7329511,"http://maps.google.com/maps?q=51.0663475,2.7329511000000366"
Oostvleteren,8640,50.9318028,2.7367963,"http://maps.google.com/maps?q=50.9318028,2.7367963000000373"
Lo,8647,50.9806703,2.7489727,"http://maps.google.com/maps?q=50.9806703,2.7489726999999675"
Klerken,8650,50.9980304,2.9041727,"http://maps.google.com/maps?q=50.9980304,2.9041727000000037"
Adinkerke,8660,51.0751267,2.6034114,"http://maps.google.com/maps?q=51.0751267,2.6034114000000272"
Oostduinkerke,8670,51.1158173,2.6824907,"http://maps.google.com/maps?q=51.1158173,2.6824907000000167"
Bovekerke,8680,51.0544659,2.9627034,"http://maps.google.com/maps?q=51.0544659,2.9627034000000094"
Hoogstade,8690,50.9795594,2.6916569,"http://maps.google.com/maps?q=50.9795594,2.691656899999998"
Beveren-aan-den-Ijzer,8691,51.0301989,2.7301883,"http://maps.google.com/maps?q=51.03019889999999,2.730188300000009"
Aarsele,8700,50.9969343,3.4224989,"http://maps.google.com/maps?q=50.99693430000001,3.422498899999937"
Ooigem,8710,50.8933706,3.3365046,"http://maps.google.com/maps?q=50.8933706,3.336504600000012"
Markegem,8720,50.9458591,3.4026412,"http://maps.google.com/maps?q=50.9458591,3.402641200000062"
Oedelem,8730,51.1685563,3.3397246,"http://maps.google.com/maps?q=51.1685563,3.339724599999954"
Egem,8740,51.0148444,3.2590301,"http://maps.google.com/maps?q=51.0148444,3.259030100000018"
Zwevezele,8750,51.03609,3.21047,"http://maps.google.com/maps?q=51.03608999999999,3.2104699999999866"
Ruiselede,8755,51.0413098,3.3970513,"http://maps.google.com/maps?q=51.0413098,3.39705129999993"
Meulebeke,8760,50.9497222,3.2869444,"http://maps.google.com/maps?q=50.9497222,3.2869444000000385"
Ingelmunster,8770,50.92325,3.26284,"http://maps.google.com/maps?q=50.92325,3.262839999999983"
Oostrozebeke,8780,50.9201615,3.3345851,"http://maps.google.com/maps?q=50.92016150000001,3.3345851000000266"
Waregem,8790,50.8869521,3.4231317,"http://maps.google.com/maps?q=50.88695209999999,3.423131699999999"
Beveren (Leie),8791,50.830709,3.2158445,"http://maps.google.com/maps?q=50.830709,3.215844500000003"
Desselgem,8792,50.8868997,3.3494059,"http://maps.google.com/maps?q=50.8868997,3.349405899999965"
Sint-Eloois-Vijve,8793,50.9034885,3.4098713,"http://maps.google.com/maps?q=50.90348849999999,3.4098712999999634"
Beveren (Roeselare),8800,50.9685498,3.1443098,"http://maps.google.com/maps?q=50.9685498,3.1443097999999736"
Lichtervelde,8810,51.0277074,3.1439095,"http://maps.google.com/maps?q=51.0277074,3.1439095000000634"
Torhout,8820,51.064451,3.098174,"http://maps.google.com/maps?q=51.064451,3.098173999999972"
Gits,8830,50.9970116,3.0999918,"http://maps.google.com/maps?q=50.9970116,3.099991799999998"
Oostnieuwkerke,8840,50.9423778,3.0642828,"http://maps.google.com/maps?q=50.9423778,3.064282800000001"
Ardooie,8850,50.979065,3.1988027,"http://maps.google.com/maps?q=50.979065,3.1988026999999875"
Koolskamp,8851,51.0019392,3.2117867,"http://maps.google.com/maps?q=51.0019392,3.211786699999948"
Lendelede,8860,50.8858333,3.2372222,"http://maps.google.com/maps?q=50.88583329999999,3.2372222000000193"
Emelgem,8870,50.9271506,3.2178679,"http://maps.google.com/maps?q=50.9271506,3.2178678999999875"
Rollegem-Kapelle,8880,50.8682853,3.1449509,"http://maps.google.com/maps?q=50.8682853,3.144950900000026"
Dadizele,8890,50.8516407,3.0944555,"http://maps.google.com/maps?q=50.8516407,3.094455499999981"
Brielen,8900,50.867386,2.8501053,"http://maps.google.com/maps?q=50.867386,2.8501052999999956"
Hollebeke,8902,50.8053761,2.9371958,"http://maps.google.com/maps?q=50.8053761,2.9371958000000404"
Boezinge,8904,50.8967457,2.8547932,"http://maps.google.com/maps?q=50.8967457,2.8547932000000174"
Elverdinge,8906,50.8858801,2.817508,"http://maps.google.com/maps?q=50.88588009999999,2.8175079999999753"
Vlamertinge,8908,50.8536639,2.8243473,"http://maps.google.com/maps?q=50.8536639,2.8243472999999994"
Bikschote,8920,50.9258047,2.8646858,"http://maps.google.com/maps?q=50.9258047,2.864685799999961"
Lauwe,8930,50.7946478,3.1849946,"http://maps.google.com/maps?q=50.7946478,3.184994599999982"
Geluwe,8940,50.8099859,3.0767048,"http://maps.google.com/maps?q=50.8099859,3.076704800000016"
Nieuwkerke,8950,50.7460655,2.8252871,"http://maps.google.com/maps?q=50.7460655,2.8252870999999686"
Dranouter,8951,50.7659194,2.7829724,"http://maps.google.com/maps?q=50.76591939999999,2.7829724000000624"
Wulvergem,8952,50.7601685,2.8524263,"http://maps.google.com/maps?q=50.7601685,2.8524262999999337"
Wijtschate,8953,50.7858578,2.8831131,"http://maps.google.com/maps?q=50.7858578,2.883113099999946"
Westouter,8954,50.7971484,2.7464372,"http://maps.google.com/maps?q=50.7971484,2.7464371999999457"
Kemmel,8956,50.7832795,2.8286179,"http://maps.google.com/maps?q=50.7832795,2.82861790000004"
Mesen,8957,50.764271,2.896138,"http://maps.google.com/maps?q=50.764271,2.8961380000000645"
Loker,8958,50.7817391,2.7721461,"http://maps.google.com/maps?q=50.7817391,2.7721460999999863"
Reningelst,8970,50.8170545,2.7634047,"http://maps.google.com/maps?q=50.8170545,2.7634047000000237"
Krombeke,8972,50.9148551,2.6885943,"http://maps.google.com/maps?q=50.9148551,2.688594299999977"
Watou,8978,50.8588172,2.6206457,"http://maps.google.com/maps?q=50.8588172,2.6206457000000682"
Beselare,8980,50.84788,3.024675,"http://maps.google.com/maps?q=50.84788,3.024675000000002"
Gent,9000,51.0678307,3.7290914,"http://maps.google.com/maps?q=51.06783069999999,3.7290914000000157"
Mariakerke (Gent),9030,51.0736204,3.680642,"http://maps.google.com/maps?q=51.0736204,3.6806420000000344"
Drongen,9031,51.0509087,3.6500631,"http://maps.google.com/maps?q=51.0509087,3.650063100000011"
Wondelgem,9032,51.0905009,3.7160657,"http://maps.google.com/maps?q=51.09050089999999,3.7160656999999446"
Sint-Amandsberg (Gent),9040,51.0593304,3.7509905,"http://maps.google.com/maps?q=51.0593304,3.7509904999999435"
Oostakker,9041,51.099713,3.7642304,"http://maps.google.com/maps?q=51.09971299999999,3.764230399999974"
Desteldonk,9042,51.1220868,3.7825691,"http://maps.google.com/maps?q=51.1220868,3.782569100000046"
Gentbrugge,9050,51.0342951,3.7640148,"http://maps.google.com/maps?q=51.03429509999999,3.764014800000041"
Afsnee,9051,51.0305603,3.6661568,"http://maps.google.com/maps?q=51.0305603,3.6661567999999534"
Zwijnaarde,9052,50.9998062,3.7106183,"http://maps.google.com/maps?q=50.99980619999999,3.7106182999999646"
Zelzate,9060,51.1982678,3.8124066,"http://maps.google.com/maps?q=51.1982678,3.812406600000031"
Heusden (O.-Vl.),9070,51.02735,3.80398,"http://maps.google.com/maps?q=51.02735,3.803980000000024"
Beervelde,9080,51.0800983,3.8805757,"http://maps.google.com/maps?q=51.0800983,3.8805757000000085"
Gontrode,9090,50.9834948,3.7972911,"http://maps.google.com/maps?q=50.9834948,3.7972910999999385"
Nieuwkerken-Waas,9100,51.1935108,4.1775401,"http://maps.google.com/maps?q=51.1935108,4.177540099999987"
Belsele (Sint-Niklaas),9111,51.1428369,4.0861828,"http://maps.google.com/maps?q=51.1428369,4.0861827999999605"
Sinaai-Waas,9112,51.1563307,4.0444238,"http://maps.google.com/maps?q=51.1563307,4.044423800000004"
Haasdonk,9120,51.1810333,4.2378789,"http://maps.google.com/maps?q=51.1810333,4.2378788999999415"
Doel,9130,51.3105976,4.2649749,"http://maps.google.com/maps?q=51.31059759999999,4.26497489999997"
Elversele,9140,51.1145439,4.1433446,"http://maps.google.com/maps?q=51.1145439,4.143344599999978"
Bazel,9150,51.147512,4.2983585,"http://maps.google.com/maps?q=51.147512,4.298358499999949"
Daknam,9160,51.1278368,3.987354,"http://maps.google.com/maps?q=51.1278368,3.987353999999982"
De Klinge,9170,51.25,4.0833333,"http://maps.google.com/maps?q=51.25,4.083333300000049"
Moerbeke-Waas,9180,51.173409,3.94401,"http://maps.google.com/maps?q=51.173409,3.9440099999999347"
Wachtebeke,9185,51.17095,3.86055,"http://maps.google.com/maps?q=51.17095,3.8605499999999893"
Kemzeke,9190,51.2062441,4.0756996,"http://maps.google.com/maps?q=51.2062441,4.075699600000007"
Appels,9200,51.0293011,4.0541409,"http://maps.google.com/maps?q=51.0293011,4.054140899999993"
Moerzeke,9220,51.0666518,4.1557302,"http://maps.google.com/maps?q=51.0666518,4.155730199999994"
Massemen,9230,50.9808891,3.8734909,"http://maps.google.com/maps?q=50.9808891,3.873490899999979"
Zele,9240,51.0700765,4.0403498,"http://maps.google.com/maps?q=51.0700765,4.040349800000058"
Waasmunster,9250,51.1097222,4.0844444,"http://maps.google.com/maps?q=51.1097222,4.0844443999999385"
Opdorp,9255,51.02806,4.21918,"http://maps.google.com/maps?q=51.02806,4.219180000000051"
Schellebelle,9260,51.0115409,3.9288305,"http://maps.google.com/maps?q=51.0115409,3.9288305000000037"
Kalken,9270,51.0383253,3.9183591,"http://maps.google.com/maps?q=51.0383253,3.918359099999975"
Denderbelle,9280,51.0009562,4.0907494,"http://maps.google.com/maps?q=51.0009562,4.09074940000005"
Overmere,9290,51.0465707,3.9466434,"http://maps.google.com/maps?q=51.0465707,3.946643399999971"
Aalst,9300,50.937793,4.0409133,"http://maps.google.com/maps?q=50.937793,4.0409133000000566"
Gijzegem,9308,50.9837657,4.051058,"http://maps.google.com/maps?q=50.9837657,4.051058000000012"
Baardegem,9310,50.9549555,4.141577,"http://maps.google.com/maps?q=50.9549555,4.141576999999984"
Nieuwerkerken (Aalst),9320,50.9234243,4.0046831,"http://maps.google.com/maps?q=50.9234243,4.004683099999966"
Impe,9340,50.9604418,3.9498849,"http://maps.google.com/maps?q=50.9604418,3.949884900000029"
Appelterre-Eichem,9400,50.8187951,3.9669736,"http://maps.google.com/maps?q=50.8187951,3.9669735999999602"
Pollare,9401,50.8172312,4.0068855,"http://maps.google.com/maps?q=50.81723119999999,4.006885499999953"
Meerbeke,9402,50.8238384,4.0407347,"http://maps.google.com/maps?q=50.8238384,4.04073470000003"
Neigem,9403,50.8033904,4.0618153,"http://maps.google.com/maps?q=50.8033904,4.061815300000035"
Aspelare,9404,50.8433311,3.957471,"http://maps.google.com/maps?q=50.8433311,3.9574709999999413"
Outer,9406,50.8416281,3.9993364,"http://maps.google.com/maps?q=50.8416281,3.9993363999999474"
Aaigem,9420,50.889158,3.9372245,"http://maps.google.com/maps?q=50.88915799999999,3.9372244999999566"
Denderhoutem,9450,50.8709652,4.0184815,"http://maps.google.com/maps?q=50.8709652,4.018481500000007"
Kerksken,9451,50.8902903,3.9920928,"http://maps.google.com/maps?q=50.8902903,3.992092800000023"
Denderleeuw,9470,50.884149,4.0707683,"http://maps.google.com/maps?q=50.884149,4.070768300000054"
Iddergem,9472,50.8745041,4.0487529,"http://maps.google.com/maps?q=50.8745041,4.048752899999954"
Welle,9473,50.8990369,4.055587,"http://maps.google.com/maps?q=50.8990369,4.05558700000006"
Goeferdinge,9500,50.7673697,3.8414944,"http://maps.google.com/maps?q=50.7673697,3.8414943999999878"
Grimminge,9506,50.7938805,3.9441263,"http://maps.google.com/maps?q=50.7938805,3.9441262999999935"
Bavegem,9520,50.9442706,3.8657862,"http://maps.google.com/maps?q=50.9442706,3.8657862000000023"
Letterhoutem,9521,50.9263891,3.8820403,"http://maps.google.com/maps?q=50.92638909999999,3.8820402999999715"
Hillegem,9550,50.8955518,3.8541872,"http://maps.google.com/maps?q=50.8955518,3.8541872000000694"
Ressegem,9551,50.8920412,3.9096039,"http://maps.google.com/maps?q=50.89204119999999,3.909603899999979"
Borsbeke,9552,50.9048954,3.8932,"http://maps.google.com/maps?q=50.9048954,3.893199999999979"
Deftinge,9570,50.7873351,3.8396638,"http://maps.google.com/maps?q=50.7873351,3.8396638000000394"
Hemelveerdegem,9571,50.8069634,3.8569442,"http://maps.google.com/maps?q=50.8069634,3.8569442000000436"
Sint-Martens-Lierde,9572,50.8046682,3.8227044,"http://maps.google.com/maps?q=50.80466819999999,3.8227044000000205"
Renaix,9600,50.7497709,3.6040642,"http://maps.google.com/maps?q=50.7497709,3.604064200000039"
Elene,9620,50.890414,3.8102911,"http://maps.google.com/maps?q=50.890414,3.810291099999972"
Beerlegem,9630,50.9058963,3.7167363,"http://maps.google.com/maps?q=50.90589629999999,3.7167362999999796"
Nederzwalm-Hermelgem,9636,50.8875058,3.6863847,"http://maps.google.com/maps?q=50.8875058,3.6863846999999623"
Elst,9660,50.8312919,3.7386165,"http://maps.google.com/maps?q=50.8312919,3.7386165000000346"
Parike,9661,50.7848195,3.7979447,"http://maps.google.com/maps?q=50.7848195,3.7979447000000164"
Sint-Kornelis-Horebeke,9667,50.834426,3.6983276,"http://maps.google.com/maps?q=50.834426,3.6983275999999705"
Etikhove,9680,50.812527,3.6266634,"http://maps.google.com/maps?q=50.812527,3.626663399999984"
Nukerke,9681,50.79703,3.5947056,"http://maps.google.com/maps?q=50.79703,3.5947055999999975"
Schorisse,9688,50.8044682,3.6769838,"http://maps.google.com/maps?q=50.8044682,3.6769838000000163"
Berchem (O.-Vl.),9690,50.7901621,3.5095443,"http://maps.google.com/maps?q=50.7901621,3.509544300000016"
Bevere,9700,50.8523695,3.5875451,"http://maps.google.com/maps?q=50.85236949999999,3.587545099999943"
Huise,9750,50.8993266,3.5896534,"http://maps.google.com/maps?q=50.89932659999999,3.5896533999999747"
Kruishoutem,9770,50.9275809,3.5373587,"http://maps.google.com/maps?q=50.9275809,3.537358700000027"
Nokere,9771,50.8850943,3.5105895,"http://maps.google.com/maps?q=50.8850943,3.5105895000000373"
Wannegem-Lede,9772,50.889802,3.5515066,"http://maps.google.com/maps?q=50.889802,3.551506600000039"
Elsegem,9790,50.8245725,3.5353615,"http://maps.google.com/maps?q=50.8245725,3.535361500000022"
Astene,9800,50.9837892,3.5604333,"http://maps.google.com/maps?q=50.9837892,3.5604332999999997"
Eke,9810,50.9580565,3.6374551,"http://maps.google.com/maps?q=50.9580565,3.637455100000011"
Bottelare,9820,50.9631988,3.7537909,"http://maps.google.com/maps?q=50.9631988,3.7537909000000127"
Sint-Martens-Latem,9830,51.0135066,3.6287716,"http://maps.google.com/maps?q=51.0135066,3.6287715999999364"
Deurle,9831,51.0092272,3.6043494,"http://maps.google.com/maps?q=51.0092272,3.6043494000000464"
Zevergem,9840,50.9791445,3.6961517,"http://maps.google.com/maps?q=50.9791445,3.696151699999973"
Hansbeke,9850,51.0747168,3.5356476,"http://maps.google.com/maps?q=51.0747168,3.5356475999999475"
Balegem,9860,50.9204927,3.7934984,"http://maps.google.com/maps?q=50.9204927,3.793498399999976"
Machelen (O.-Vl.),9870,50.8762831,4.4219707,"http://maps.google.com/maps?q=50.87628309999999,4.421970699999974"
Lotenhulle,9880,51.0483873,3.4655772,"http://maps.google.com/maps?q=51.04838729999999,3.4655771999999843"
Bellem,9881,51.0884355,3.4906454,"http://maps.google.com/maps?q=51.0884355,3.4906453999999485"
Asper,9890,50.9160245,3.6510321,"http://maps.google.com/maps?q=50.9160245,3.651032100000066"
Eeklo,9900,51.187908,3.561291,"http://maps.google.com/maps?q=51.187908,3.561290999999983"
Ursel,9910,51.1294092,3.4856153,"http://maps.google.com/maps?q=51.1294092,3.485615300000063"
Lovendegem,9920,51.1075935,3.6285575,"http://maps.google.com/maps?q=51.1075935,3.6285574999999426"
Vinderhoute,9921,51.0869089,3.6407214,"http://maps.google.com/maps?q=51.0869089,3.6407213999999612"
Zomergem,9930,51.1148946,3.5611179,"http://maps.google.com/maps?q=51.1148946,3.5611178999999993"
Oostwinkel,9931,51.1508463,3.5252604,"http://maps.google.com/maps?q=51.1508463,3.525260399999979"
Ronsele,9932,51.1309736,3.5516605,"http://maps.google.com/maps?q=51.1309736,3.5516605000000254"
Ertvelde,9940,51.1787632,3.7466865,"http://maps.google.com/maps?q=51.1787632,3.74668650000001"
Waarschoot,9950,51.150958,3.603095,"http://maps.google.com/maps?q=51.150958,3.6030949999999393"
Assenede,9960,51.2269806,3.7510157,"http://maps.google.com/maps?q=51.2269806,3.751015700000039"
Boekhoute,9961,51.2581738,3.7181501,"http://maps.google.com/maps?q=51.25817379999999,3.7181501000000026"
Bassevelde,9968,51.2300624,3.6777432,"http://maps.google.com/maps?q=51.23006239999999,3.677743200000009"
Kaprijke,9970,51.223075,3.6186057,"http://maps.google.com/maps?q=51.22307499999999,3.618605699999989"
Lembeke,9971,51.1945809,3.6330207,"http://maps.google.com/maps?q=51.1945809,3.6330206999999746"
Sint-Laureins,9980,51.2361689,3.5329424,"http://maps.google.com/maps?q=51.2361689,3.5329424000000245"
Sint-Margriete,9981,51.2803944,3.5469357,"http://maps.google.com/maps?q=51.2803944,3.546935699999949"
Sint-Jan-in-Eremo,9982,51.2737009,3.5768505,"http://maps.google.com/maps?q=51.27370089999999,3.5768504999999777"
Waterland-Oudeman,9988,51.2888925,3.5902999,"http://maps.google.com/maps?q=51.2888925,3.590299899999991"
Maldegem,9990,51.209082,3.4486611,"http://maps.google.com/maps?q=51.209082,3.448661099999981"
Adegem,9991,51.2045152,3.4900074,"http://maps.google.com/maps?q=51.2045152,3.4900073999999677"
Middelburg,9992,51.2547106,3.4150935,"http://maps.google.com/maps?q=51.2547106,3.4150935000000118"
